name;strasse;plz;ort;vorwahl;tel;url;opac;öffnungszeiten;bestandsgrößenklasse;unterhaltsträger;dbv;leitung;laenge;breite
Universitätsbibliothek Greifswald;Felix-Hausdorff-Str. 10;17489;Greifswald;-3834;86 15 02;http://www.uni-greifswald.de/bibliothek/html;;Mo-Fr.: 8-24, Sa: 9-24 Uhr;1.000.001 und mehr;Land;Sektion 4: Wiss. Universalbibliotheken;hauptamtlich;13.379.627;5.409.581
Staatsbibliothek Bamberg ;Neue Residenz, Domplatz 8;96049;Bamberg;-951;9 55 03 - 0;https://www.staatsbibliothek-bamberg.de;https://katalog.ub.uni-bamberg.de;Mo - Fr 9:00 - 17:00 Uhr, Sa 9:00 - 12:00 Uhr (im August Sa geschlossen);300.001 bis 1.000.000;Land;Sektion 4: Wiss. Universalbibliotheken;hauptamtlich;10.886.786;49.893.387
Universitätsbibliothek Kassel - Landesbibliothek und Murhardsche Bibliothek der Stadt Kassel;Diagonale 10;34127;Kassel;-561;804-2117;http://www.uni-kassel.de/ub;https://hds.hebis.de/ubks;Mo - Fr 8 bis 23 Uhr. Sa u. So 10 bis 21 Uhr;1.000.001 und mehr;Land;Sektion 4: Wiss. Universalbibliotheken;hauptamtlich;9.495.199;51.314.684
Staats- und Universitätsbibliothek Bremen;Bibliothekstr.;28359;Bremen;-421;2 18-59401;http://www.suub.uni-bremen.de;;Mo-Fr 8.00-22.00 h. Sa 10.00-18.00 h;1.000.001 und mehr;Land;Sektion 4: Wiss. Universalbibliotheken;hauptamtlich;8.809.338;53.075.606
Fürstliche Schaumburg-Lippische Hofbibliothek In Verwaltung des Niedersächsischen Landesarchivs - Standort Bückeburg -;Schlossplatz 2;31675;Bückeburg;-5722;96 77-30;http://www.nla.niedersachsen.de;;Mo, Di, Do 9.00-16.00 Uhr, Mi 9.00-18.00 Uhr, Fr 9.00-13 Uhr;30.001 bis 100.000;Private Trägerschaft;Sektion 4: Wiss. Universalbibliotheken;hauptamtlich;9.050.444;52.260.372
Technische Universität Berlin Universitätsbibliothek;Fasanenstraße 88 (im VOLKSWAGEN-Haus);10623;Berlin;-30;314-76101;http://www.ub.tu-berlin.de;http://portal.ub.tu-berlin.de;Zentralbibliothek: Mo-Fr 9-22 Uhr, Sa 10-18 Uhr;1.000.001 und mehr;Körperschaft/Stiftung des öff. Rechts;Sektion 4: Wiss. Universalbibliotheken;hauptamtlich;13.405.538;5.251.767
Stiftung Tierärztliche Hochschule Hannover. Bibliothek;Bünteweg 2;30559;Hannover;-511;9 53-7110 und 7100;http://www.tiho-hannover.de;;Mo., Mi., Fr.   11 - 19, Di., Do. 9 - 17, Sa. 10 - 13;100.001 bis 300.000;Land;Sektion 4: Wiss. Universalbibliotheken;hauptamtlich;9.738.084;52.374.551
Stadtbibliothek Memmingen;Martin-Luther-Platz 1;87700;Memmingen;-8331;8 50-157;http://www.memmingen.de/468.html;;;30.001 bis 100.000;Kommune/Gemeinde;Sektion 4: Wiss. Universalbibliotheken;hauptamtlich;10.184.968;47.988.445
Staatliche Bibliothek Neuburg/Donau;Karlspl. A 17;86633;Neuburg/Donau;-8431;91 06;http://www.sbnd.de;http://opac.sbnd.de;Mo 13.30-16.00. Di 13.30-18.00. Mi 13.30-16.00. Do 10.00-12.00 und 13.30-16.00. Fr 10.00-13.30;30.001 bis 100.000;Land;Sektion 4: Wiss. Universalbibliotheken;hauptamtlich;11.185.398;48.732.441
Kommunikations- und Informationszentrum der Universität Ulm (kiz) / Abt. Informationsversorgung und Abt. Informationsmedien;Albert-Einstein-Allee 37;89081;Ulm/Donau;-731;50-3 03 00 und 50-3 00 00;http://kiz.uni-ulm.de;http://www.uni-ulm.de/index.php?id=1357;Mo - Fr 8:00 - 22:00 Uhr, Sa 10:00 - 20:00 Uhr;300.001 bis 1.000.000;Land;Sektion 4: Wiss. Universalbibliotheken;hauptamtlich;9.990.402;48.398.454
Universitätsbibliothek Dortmund;Vogelpothsweg 76;44227;Dortmund;-231;7 55-4029, 4030 und 4001;http://www.ub.uni-dortmund.de;;Mo-Fr 7.00-1.00h. Sa+So 9.00-1.00h, Bereichsbibliotheken s. homepage;1.000.001 und mehr;Land;Sektion 4: Wiss. Universalbibliotheken;hauptamtlich;7.464.165;51.514.171
Universitätsbibliothek Hagen;Universitätsstr. 23;58097;Hagen;2331;987-2924;http://www.ub.fernuni-hagen.de;http://ub-parma.fernuni-hagen.de/F;Mo-Do 9-19, Fr 9-16, Sa 9-13 Uhr;300.001 bis 1.000.000;Land;Sektion 4: Wiss. Universalbibliotheken;hauptamtlich;7.467.406;51.360.171
Universitätsbibliothek Giessen;Otto-Behaghel-Str. 8;35394;Gießen;-641;99-14032;https://www.uni-giessen.de/ub/de;https://opac.uni-giessen.de/;Mo - So 7.30 - 23.00 Uhr;1.000.001 und mehr;Land;Sektion 4: Wiss. Universalbibliotheken;hauptamtlich;8.674.877;50.586.195
Köln USB;Universitätsstr. 33;50931;Köln;-221;470-2214 oder 2374;http://www.ub.uni-koeln.de;;;1.000.001 und mehr;Land;Sektion 4: Wiss. Universalbibliotheken;hauptamtlich;6.957.068;50.938.107
Lippische Landesbibliothek / Theologische Bibliothek und Mediothek;Hornsche Str. 41;32756;Detmold;-5231;9 26 60-0;http://www.llb-detmold.de;http://www.llb-detmold.de/webOPACClient_sisis/start.do;Mo 13.00-18.00 Uhr, Di, Do, Fr 10.00-18.00 Uhr, Mi 10-14.00 Uhr;300.001 bis 1.000.000;Körperschaft/Stiftung des öff. Rechts;Sektion 4: Wiss. Universalbibliotheken;hauptamtlich;8.878.641;51.935.357
"Technische Universität Bergakademie Freiberg. Bibliothek ""Georgius Agricola""";Agricolastr. 10;09599;Freiberg;-3731;39 28 16;http://tu-freiberg.de/ze/ub/;http://webopac.ub.tu-freiberg.de;;300.001 bis 1.000.000;Land;Sektion 4: Wiss. Universalbibliotheken;hauptamtlich;13.344.344;50.914.868
Staatliche Bibliothek Passau;Michaeligasse 11;94032;Passau;-851;7564400;http://www.staatliche-bibliothek-passau.de;;Mo-Fr 7.30-18.00;300.001 bis 1.000.000;Land;Sektion 4: Wiss. Universalbibliotheken;hauptamtlich;13.420.113;48.569.343
Ruhr-Universität Bochum. Universitätsbibliothek;Universitätsstr. 150;44780;Bochum;-234;32-22350;http://www.ub.rub.de;;Mo-Fr 8-24 Uhr, Sa 11-20 Uhr, So 11-18 Uhr;1.000.001 und mehr;Land;Sektion 4: Wiss. Universalbibliotheken;hauptamtlich;7.217.177;51.482.699
Universitätsbibliothek Bielefeld;Universitätsstr. 25;33615;Bielefeld;521;106-4051;https://www.ub.uni-bielefeld.de/;;Mo bis Fr 08:00 - 01:00 Uhr des Folgetages, Sa und So 09:00 - 22:00 Uhr ;1.000.001 und mehr;Land;Sektion 4: Wiss. Universalbibliotheken;hauptamtlich;853.212;52.020.578
Universitätsbibliothek Trier;Universitätsring 15;54296;Trier;-651;201-2496;http://www.ub.uni-trier.de;;Montag - Freitag: 8 - 24 Uhr. Samstag: 8 - 19 Uhr. Sonntag: 11 - 15 Uhr;1.000.001 und mehr;Land;Sektion 4: Wiss. Universalbibliotheken;hauptamtlich;6.641.293;49.756.737
Universitäts- und Landesbibliothek Münster;Krummer Timpen 3;48143;Münster;-251;83-24021;http://www.uni-muenster.de/ULB/;http://www.uni-muenster.de/ULB/katalog/;Mo-Fr 8-22, Sa/So 10-20;1.000.001 und mehr;Land;Sektion 4: Wiss. Universalbibliotheken;hauptamtlich;7.626.804;51.961.908
Staats- und Universitätsbibliothek Hamburg Carl von Ossietzky;Von-Melle-Park 3;20146;Hamburg;-40;42838-2215;http://www.sub.uni-hamburg.de;;;1.000.001 und mehr;Land;Sektion 4: Wiss. Universalbibliotheken;hauptamtlich;999.697;53.550.678
Universitätsbibliothek Johann Christian Senckenberg;Bockenheimer Landstr. 134 - 138;60325;Frankfurt/Main;-69;79839 230;http://www.ub.uni-frankfurt.de/;;;1.000.001 und mehr;Körperschaft/Stiftung des öff. Rechts;Sektion 4: Wiss. Universalbibliotheken;hauptamtlich;8.682.433;5.011.088
Badische Landesbibliothek;Erbprinzenstr. 15;76133;Karlsruhe;07 21;1 75 - 22 22,  - 22 01;http://www.blb-karlsruhe.de;https://blb.ibs-bw.de;Mo - Fr 9.00 - 19.00 Uhr, Sa 10.00 - 18.00 Uhr;1.000.001 und mehr;Land;Sektion 4: Wiss. Universalbibliotheken;hauptamtlich;8.405.282;49.009.626
Hochschulbibliothek der Technischen Hochschule Nürnberg Georg Simon Ohm;Keßlerplatz 12;90489;Nürnberg;-911;58 80-4242;http://www.th-nuernberg.de/bibliothek;;Zentralbibliothek: Montag - Freitag: 9:00 - 21:00 Uhr. Samstag: 9:00 - 18:00 Uhr. Teilbibliothek : Montag - Freitag: 9:00 - 21:00 Uhr. Samstag: 9:00 - 18:00 Uhr. Präsenzbibliothek Informatik: Montag - Donnerstag 12.45 - 16.30 Uhr. Während der Semesterfer;100.001 bis 300.000;Land;Sektion 4: Wiss. Universalbibliotheken;hauptamtlich;11.075.269;49.450.938
Universitätsbibliothek Wuppertal;Gaußstr. 20;42119;Wuppertal;-202;4 39-2690;http://www.bib.uni-wuppertal.de;;Montag bis Donnerstag 8.00 bis 22.00. Freitag 8.00 bis 20.00. Samstag 10.00 bis 22.00;1.000.001 und mehr;Land;Sektion 4: Wiss. Universalbibliotheken;hauptamtlich;7.195.874;51.271.288
Humboldt-Universität zu Berlin  Universitätsbibliothek;Geschwister-Scholl-Str. 1-3;10117;Berlin;-30;2093-99370;http://www.ub.hu-berlin.de;http://primus.ub.hu-berlin.de/;;1.000.001 und mehr;Land;Sektion 4: Wiss. Universalbibliotheken;hauptamtlich;13.405.538;5.251.767
Herzog August Bibliothek Wolfenbüttel;Lessingpl. 1;38304;Wolfenbüttel;-5331;8 08-0;http://www.hab.de;;;1.000.001 und mehr;Land;Sektion 4: Wiss. Universalbibliotheken;hauptamtlich;10.536.202;52.163.491
Gottfried Wilhelm Leibniz Bibliothek - Niedersächsische Landesbibliothek;Waterloostr. 8;30169;Hannover;-511;12 67-0;http://www.gwlb.de;;Mo 9-19, Di-Fr 10-18;1.000.001 und mehr;Land;Sektion 4: Wiss. Universalbibliotheken;hauptamtlich;9.738.084;52.374.551
Universitätsbibliothek Braunschweig;Universitätsplatz 1;38106;Braunschweig;-531;3 91-5011;http://www.ub.tu-braunschweig.de;https://katalog.ub.tu-braunschweig.de/vufind/;Mo-Fr 7-0 Uhr. Sa 10-22 Uhr. So 10-17 Uhr;1.000.001 und mehr;Land;Sektion 4: Wiss. Universalbibliotheken;hauptamtlich;10.520.525;5.226.249
Saarländische Universitäts- und Landesbibliothek;Universität des Saarlandes. Campus Geb. B1.1;66123;Saarbrücken;-681;302 - 2070;http://www.sulb.uni-saarland.de;http://opac.sulb.uni-saarland.de;Mo-Fr 8:00-21:00 -  Sa 10:00-15:00;1.000.001 und mehr;Land;Sektion 4: Wiss. Universalbibliotheken;hauptamtlich;6.996.011;49.236.301
Universitätsbibliothek Bamberg;Feldkirchenstr. 21/Zufahrt: Am Heidelsteig;96052;Bamberg;-951;863-1501;http://www.uni-bamberg.de/ub/;;;1.000.001 und mehr;Land;Sektion 4: Wiss. Universalbibliotheken;hauptamtlich;10.886.786;49.893.387
Universitäts- und Landesbibliothek Sachsen-Anhalt;August-Bebel-Str. 13 und 50;06108;Halle/Saale;-345;5 52 20 61;http://bibliothek.uni-halle.de;;Hauptlesesaal Mo-Sa 8.00 - 23.00. So 14.00-23.00;1.000.001 und mehr;Land;Sektion 4: Wiss. Universalbibliotheken;hauptamtlich;11.970.666;51.482.478
Universitätsbibliothek Leipzig;Beethovenstraße 6;04107;Leipzig;-341;97 30-837;http://www.ub.uni-leipzig.de;;Mo-Sa 8.00-24.00;1.000.001 und mehr;Land;Sektion 4: Wiss. Universalbibliotheken;hauptamtlich;12.377.931;51.338.288
Thüringer Universitäts- und Landesbibliothek;Bibliotheksplatz 2;07743;Jena;-3641;94 00 00;http://www.thulb.uni-jena.de;;;1.000.001 und mehr;Land;Sektion 4: Wiss. Universalbibliotheken;hauptamtlich;11.591.842;5.093.006
Forschungsbibliothek Gotha der Universität Erfurt;Schlossplatz 1;99867;Gotha;361;737-5530 (Sekretariat), 737-5540 (Information);https://www.uni-erfurt.de/bibliothek/fb/;https://opac.uni-erfurt.de/;Mo-Fr 9.00-20.00, Sa 9.00 - 13.00;bis 1.000;Land;kein Mitglied;hauptamtlich;1.070.337;50.948.759
Sächsische Landesbibliothek - Staats- und Universitätsbibliothek Dresden(SLUB) ;Zellescher Weg 18;01069;Dresden;0351;4677-265;http://www.slub-dresden.de;http://www.slub-dresden.de;Mo - Sa 8.00 - 24.00 Uhr / So 10.00 - 18.00 Uhr;1.000.001 und mehr;;Sektion 4: Wiss. Universalbibliotheken;hauptamtlich;13.736.883;51.051.697
Staatliche Bibliothek Regensburg;Gesandtenstr. 13;93047;Regensburg;-941;630806-0;http://www.staatliche-bibliothek-regensburg.de/;;Mo - Fr.: 9.00 - 18.00 Uhr, Sa 14.00 - 18.00 Uhr;300.001 bis 1.000.000;Land;Sektion 4: Wiss. Universalbibliotheken;hauptamtlich;12.097.392;49.017.834
Universitätsbibliothek Mannheim;Schloss Schneckenhof West;68131;Mannheim;621;181-2941;http://www.bib.uni-mannheim.de;;Bibliotheksbereiche Mo-Fr 8-24 Uhr, Sa-So 10-24 Uhr, Ausleihe Mo-Fr 9-18 Uhr, Sa 9- 13 Uhr ;1.000.001 und mehr;Land;Sektion 4: Wiss. Universalbibliotheken;hauptamtlich;8.466.275;4.948.778
Universitätsbibliothek Kaiserslautern;Paul-Ehrlich-Str., Gebäude 32;67663;Kaiserslautern;-631;205 -2367, -2190 oder -2241;http://www.ub.uni-kl.de/;https://opac.ub.uni-kl.de/;Mo-Fr 8:00 -23:00, Sa 9:00-23:00 ;300.001 bis 1.000.000;Land;Sektion 4: Wiss. Universalbibliotheken;hauptamtlich;7.768.864;49.445.456
Hochschule Neubrandenburg. Hochschulbibliothek;Brodaer Str. 2;17033;Neubrandenburg;-395;5 69 31500;http://www.hs-nb.de/bibliothek/;;Ausleihe Mo-Fr 9-16 Lesesaal 9-19;100.001 bis 300.000;Land;Sektion 4: Wiss. Universalbibliotheken;hauptamtlich;1.325.996;53.557.345
Hochschulbibliothek Karlsruhe;Bismarckstr. 10;76133;Karlsruhe;-721;9 25-5500;http://www.ph-karlsruhe.de/hsb;http://www.ph-karlsruhe.de/institute/ph/bibliothek/online-katalog/;;100.001 bis 300.000;Land;Sektion 4: Wiss. Universalbibliotheken;hauptamtlich;8.405.282;49.009.626
Technische Universität Hamburg. Universitätsbibliothek;Denickestr. 22;21073;Hamburg;40;4 28 78-2845 (Ausk.);http://www.tub.tuhh.de;;;300.001 bis 1.000.000;Land;Sektion 4: Wiss. Universalbibliotheken;hauptamtlich;999.697;53.550.678
Niedersächsische Staats- und Universitätsbibliothek;Platz der Göttinger Sieben 1;37073;Göttingen;-551;39-5231/5212;http://www.sub.uni-goettingen.de;;Mo - Fr 7 - 1 Uhr. Sa - So 9 - 22 Uhr;1.000.001 und mehr;Land;Sektion 4: Wiss. Universalbibliotheken;hauptamtlich;993.514;51.533.027
Universitätsbibliothek München;Geschwister-Scholl-Pl. 1;80539;München;-89;21 80-2428;http://www.ub.uni-muenchen.de/;;;1.000.001 und mehr;Land;Sektion 4: Wiss. Universalbibliotheken;hauptamtlich;11.573.599;48.143.439
Universitätsbibliothek der Julius-Maximilians-Universität ;Am Hubland;97074;Würzburg;-931;3 18 59 43;http://www.bibliothek.uni-wuerzburg.de;;Mo-Fr 8.00-21.00 (1.Aug.-31.Aug, 27.Dez.-5.Jan. 8.30-18.00). Sa 9.00-18.00;1.000.001 und mehr;Land;Sektion 4: Wiss. Universalbibliotheken;hauptamtlich;993.725;4.979.393
Herzogin Anna Amalia Bibliothek / Klassik Stiftung Weimar;Platz der Demokratie 4;99423;Weimar;-3643;5 45-200;http://www.klassik-stiftung.de;;Mo - Fr 9 -21 h, Sa 9 - 16 h;1.000.001 und mehr;Körperschaft/Stiftung des öff. Rechts;Sektion 4: Wiss. Universalbibliotheken;hauptamtlich;11.329.741;50.980.761
IZUS / Universitätsbibliothek Stuttgart;Holzgartenstraße 16;70174;Stuttgart;711;685-82222;http://www.ub.uni-stuttgart.de/;;Mo - Fr: 8.00 - 24.00 Uhr, Sa - So: 10.00 - 24.00 Uhr;1.000.001 und mehr;Land;Sektion 4: Wiss. Universalbibliotheken;hauptamtlich;9.177.734;48.775.817
Stadtbibliothek und Öffentliche Büchereien;Marktplatz 10;67547;Worms;-6241;8 53 42 00;http://www.stadtbibliothek-worms.de;http://opac.ulb.tu-darmstadt.de/opac/opac;Mo-Do 10-12 Uhr und Mo, Di, Do,  14-18 Uhr, Fr 10-18, Sa 10-13;300.001 bis 1.000.000;Kommune/Gemeinde;Sektion 4: Wiss. Universalbibliotheken;hauptamtlich;8.361.704;49.629.828
Medizinische Hochschule Hannover. Bibliothek;Carl-Neuberg-Str. 1;30625;Hannover;-511;532 - 3970;http://www.mh-hannover.de/bibliothek.html;;;100.001 bis 300.000;Land;Sektion 4: Wiss. Universalbibliotheken;hauptamtlich;9.738.084;52.374.551
Bayerische Staatsbibliothek;Ludwigstraße 16;80539;München;89;28638-2365;http://www.bsb-muenchen.de;https://opacplus.bsb-muenchen.de/metaopac/start.do?SearchType=2;Allgemeiner Lesesaal: Mo-So 8-24 Uhr, allgemeine Information Mo-Fr 9-19 Uhr;1.000.001 und mehr;Land;Sektion 4: Wiss. Universalbibliotheken;hauptamtlich;11.573.599;48.143.439
Württembergische Landesbibliothek;Konrad-Adenauer-Str. 8;70173;Stuttgart;-711;2 12-4424 und 4454;http://www.wlb-stuttgart.de;http://www.wlb-stuttgart.de/sonstiges/online-katalog/;Mo-Fr 8-20 Uhr, Sa 9-13 Uhr;1.000.001 und mehr;Land;Sektion 4: Wiss. Universalbibliotheken;hauptamtlich;9.177.734;48.775.817
Wissenschaftliche Stadtbibliothek Mainz;Rheinallee 3 B;55116;Mainz;-6131;Dez 49;http://www.bibliothek.mainz.de;;Mo - Mi 10:00 - 18:00 und Fr und Sa 10:00 - 13:00;300.001 bis 1.000.000;Kommune/Gemeinde;Sektion 4: Wiss. Universalbibliotheken;hauptamtlich;8.271.855;50.001.959
Universitäts- und Landesbibliothek Düsseldorf;Universitätsstraße 1;40225;Düsseldorf;-211;81-12030;http://www.ulb.hhu.de/;http://katalog.ulb.hhu.de/;mo-fr 8-24, sa, so 9-24;1.000.001 und mehr;Land;Sektion 4: Wiss. Universalbibliotheken;hauptamtlich;6.780.068;5.122.422
Staatliche Bibliothek, Schlossbibliothek Ansbach;Reitbahn 5;91522;Ansbach;-981;95385-0;http://www.schlossbibliothek-ansbach.de;;Montag - Freitag: 10.00 - 17.00,  Donnerstag: 10.00 - 18.00 ;100.001 bis 300.000;Land;Sektion 4: Wiss. Universalbibliotheken;hauptamtlich;1.057.193;49.302.592
Freie Universität Berlin. Universitätsbibliothek;Garystr. 39;14195;Berlin;-30;838-51111;http://www.ub.fu-berlin.de/index.html;http://primo.fu-berlin.de/;Lesesaal / Informationszentrum / Leihstelle: Mo-Fr 9.00-20.00 Uhr;1.000.001 und mehr;Land;Sektion 4: Wiss. Universalbibliotheken;hauptamtlich;13.405.538;5.251.767
ZBW - Leibniz-Informationszentrum Wirtschaft;Düsternbrooker Weg 120;24105;Kiel;-40;42834351;http://www.zbw-kiel.de;;Mo-Fr 9:00 - 19:00;1.000.001 und mehr;Körperschaft/Stiftung des öff. Rechts;Sektion 4: Wiss. Universalbibliotheken;hauptamtlich;1.013.727;54.321.775
Deutsche Nationalbibliothek;Adickesallee 1;60322;Frankfurt/Main;-69;15 25-0;http://www.dnb.de;;;1.000.001 und mehr;Staat (Bund od. Republik);Sektion 4: Wiss. Universalbibliotheken;hauptamtlich;8.682.433;5.011.088
Universitätsbibliothek;Wilhelm-Röpke-Str. 4;35039;Marburg/Lahn;-6421;28-21319 bis 21321;http://www.uni-marburg.de/bis/;;;1.000.001 und mehr;Land;Sektion 4: Wiss. Universalbibliotheken;hauptamtlich;8.769.147;50.809.004
Universitätsbibliothek Heidelberg;Plöck 107/109;69117;Heidelberg;-6221;542382;http://www.ub.uni-heidelberg.de;http://www.ub.uni-heidelberg.de/helios/kataloge/;;1.000.001 und mehr;Land;Sektion 4: Wiss. Universalbibliotheken;hauptamtlich;8.702.067;49.408.826
Universitätsbibliothek Rostock;Albert-Einstein-Strasse 6;18057;Rostock;-381;498-8601;http://www.ub.uni-rostock.de;http://opac.lbs-rostock.gbv.de/DB=1/LNG=DU/;;1.000.001 und mehr;Land;Sektion 4: Wiss. Universalbibliotheken;hauptamtlich;12.135.993;54.088.548
Universitätsbibliothek Mainz;Jakob-Welder-Weg 6;55128;Mainz;-6131;39-22644;http://www.ub.uni-mainz.de;http://opac.ub.uni-mainz.de;Mo-Fr 8.00-24.00 und Sa-So 10.00-24.00 (außer an gesetzl. Feiertagen) ;1.000.001 und mehr;Land;Sektion 4: Wiss. Universalbibliotheken;hauptamtlich;8.271.855;50.001.959
KIT-Bibliothek;Straße am Forum 2;76131;Karlsruhe;-721;6 08-43101;http://www.bibliothek.kit.edu;;Rund um die Uhr, auch an Wochenenden und Feiertagen geöffnet. Auskunft und Leihstelle: Mo - Fr 9 - 19 Uhr, Samstag 9 - 12.30 Uhr. ;1.000.001 und mehr;Land;Sektion 4: Wiss. Universalbibliotheken;hauptamtlich;8.405.282;49.009.626
Universitätsbibliothek Paderborn;Warburger Str. 100;33098;Paderborn;-5251;60 20 47;http://www.ub.uni-paderborn.de;https://katalog.ub.uni-paderborn.de;Mo - Fr  7.30 - 24.00 Uhr. Sa  9.00 - 21.00 Uhr. So 09.00 - 21.00 Uhr;1.000.001 und mehr;Land;Sektion 4: Wiss. Universalbibliotheken;hauptamtlich;8.757.301;51.719.601
Universitätsbibliothek Bayreuth;Universitätsstr. 30;95447;Bayreuth;-921;55-3400;http://www.ub.uni-bayreuth.de/;;;1.000.001 und mehr;Land;Sektion 4: Wiss. Universalbibliotheken;hauptamtlich;11.571.349;49.945.574
Bibliotheks- und Informationssystem der Carl von Ossietzky Universität Oldenburg;Uhlhornsweg 49/55;26129;Oldenburg;-441;7 98-4001;http://www.bis.uni-oldenburg.de;;;1.000.001 und mehr;Land;Sektion 4: Wiss. Universalbibliotheken;hauptamtlich;8.212.993;53.140.025
Universitätsbibliothek Passau;Innstr. 29;94032;Passau;851;509-1601;https://www.ub.uni-passau.de/;https://infoguide.ub.uni-passau.de;;1.000.001 und mehr;Land;Sektion 4: Wiss. Universalbibliotheken;hauptamtlich;13.420.113;48.569.343
Universitätsbibliothek Kiel. Zentralbibliothek;Leibnizstraße 9;24118;Kiel;-431;8 80-4701;http://www.ub.uni-kiel.de/;;http://www.ub.uni-kiel.de/ueber/oeffnungszeiten/;1.000.001 und mehr;Land;Sektion 4: Wiss. Universalbibliotheken;hauptamtlich;1.013.727;54.321.775
Universitätsbibliothek Tübingen;Wilhelmstr. 32;72074;Tübingen;-7071;29-72577;http://www.ub.uni-tuebingen.de;;Mo-Fr 8.00-24.00 UhrSa/So 10.00-22.00 Uhr;1.000.001 und mehr;Land;Sektion 4: Wiss. Universalbibliotheken;hauptamtlich;9.057.829;48.522.143
Landesbibliothek Oldenburg;Pferdemarkt 15;26121;Oldenburg;-441;7 99-2800;http://www.lb-oldenburg.de;;Mo-Fr 10-19 Uhr, Sa 9-12 Uhr;300.001 bis 1.000.000;Land;Sektion 4: Wiss. Universalbibliotheken;hauptamtlich;8.212.993;53.140.025
Landesbibliothek Coburg;Schloßpl. 1 (Schloß Ehrenburg);96450;Coburg;-9561;85380;http://www.landesbibliothek-coburg.de;https://katalog.landesbibliothek-coburg.de;Mo - Do: 10 - 17 Uhr. Fr + Sa: 10 - 13 Uhr. während der Schulferien Mo - Fr: 10 - 13 Uhr;300.001 bis 1.000.000;Land;Sektion 4: Wiss. Universalbibliotheken;hauptamtlich;10.964.232;50.258.421
Universitätsbibliothek der RWTH Aachen;Templergraben 61;52062;Aachen;-241;80-94445;http://www.ub.rwth-aachen.de/;;Mo-Fr 08:30-24:00 Sa 09:00-24:00 So+Feiertage 11:00-24:00;1.000.001 und mehr;Land;Sektion 4: Wiss. Universalbibliotheken;hauptamtlich;60.848;50.773.516
Universität Hohenheim, Kommunikations-, Informations- und Medienzentrum (KIM) ;Garbenstr. 15;70599;Stuttgart;-711;459-23217;https://kim.uni-hohenheim.de;https://hohsearch.uni-hohenheim.de/opac/;Mo-Fr 8.00-21.00 Uhr. Sa u.So 10.00-21.00 Uhr;300.001 bis 1.000.000;Land;Sektion 4: Wiss. Universalbibliotheken;hauptamtlich;9.177.734;48.775.817
Universitätsbibliothek Regensburg;Universitätsstr. 31;93053;Regensburg;-941;9 43 39 01 - 03;http://www.uni-regensburg.de/bibliothek;https://www.regensburger-katalog.de;Mo - Fr 8.00 - 22.00 Uhr. Sa 9.00 - 18.00 Uhr;1.000.001 und mehr;Land;Sektion 4: Wiss. Universalbibliotheken;hauptamtlich;12.097.392;49.017.834
Staatsbibliothek zu Berlin - Preußischer Kulturbesitz;Potsdamer Str. 33;10785;Berlin;-30;2 66-43 25 00;http://www.staatsbibliothek-berlin.de;http://stabikat.de;;1.000.001 und mehr;Körperschaft/Stiftung des öff. Rechts;Sektion 4: Wiss. Universalbibliotheken;hauptamtlich;13.405.538;5.251.767
Universitätsbibliothek Freiburg/Breisgau;Platz der Universität 2;79098;Freiburg/Breisgau;-761;203-3900;https://www.ub.uni-freiburg.de;https://katalog.ub.uni-freiburg.de;7:00 - 24:00 Uhr;1.000.001 und mehr;Land;Sektion 4: Wiss. Universalbibliotheken;hauptamtlich;7.849.877;47.994.786
Staats- und Stadtbibliothek Augsburg;Schaezlerstr. 25;86152;Augsburg;-821;7 10 13 27 39;http://www.sustb-augsburg.de;http://opac.sustb-augsburg.de;;300.001 bis 1.000.000;Land;Sektion 4: Wiss. Universalbibliotheken;hauptamtlich;10.892.578;48.369.696
Universitätsbibliothek Clausthal-Zellerfeld;Leibnizstr. 2;38678;Clausthal-Zellerfeld;-5323;72-2301;http://bibliothek.tu-clausthal.de;;;300.001 bis 1.000.000;Land;Sektion 4: Wiss. Universalbibliotheken;hauptamtlich;10.333.189;51.803.755
Hofbibliothek Aschaffenburg  ;Schloss Johannisburg, Schlossplatz 4;63739;Aschaffenburg;-6021;44 63 99-0;http://www.hofbibliothek-ab.de;http://www.hb.bibkatalog.de;siehe http://www.hofbibliothek-ab.de/oeffnung.htm;100.001 bis 300.000;Land;Sektion 4: Wiss. Universalbibliotheken;hauptamtlich;9.147.832;49.973.506
Universitätsbibliothek Augsburg;Universitätsstr. 22;86159;Augsburg;-821;598-5300;http://www.bibliothek.uni-augsburg.de;https://opac.bibliothek.uni-augsburg.de/;;1.000.001 und mehr;Land;Sektion 4: Wiss. Universalbibliotheken;hauptamtlich;10.892.578;48.369.696
Universität Potsdam. Universitätsbibliothek, IKMZ;Karl-Lieb-Knecht-Str. 24 - 25, Haus 18;14476;Potsdam/Golm;331;977-2103;http://www.ub.uni-potsdam.de;http://opac.ub.uni-potsdam.de/;9.00 - 22.00;1.000.001 und mehr;Land;Sektion 4: Wiss. Universalbibliotheken;hauptamtlich;1.305.358;52.400.355
Universitätsbibliothek Osnabrück;Alte Münze 16;49074;Osnabrück;-541;9 69-4320;http://www.ub.uni-osnabrueck.de;;;1.000.001 und mehr;Land;Sektion 4: Wiss. Universalbibliotheken;hauptamtlich;804.205;5.227.692
Universitäts- und Landesbibliothek Bonn;Adenauerallee 39-41;53113;Bonn;-228;73-7352;https://www.ulb.uni-bonn.de;https://www.ulb.uni-bonn.de;https://www.ulb.uni-bonn.de/de/die-ulb/oeffnungszeiten-zweigstellen;;Land;Sektion 4: Wiss. Universalbibliotheken;hauptamtlich;7.099.187;50.734.245
Universitäts- und Landesbibliothek Darmstadt;Magdalenenstraße 8;64289;Darmstadt;-6151;16-76211;http://www.ulb.tu-darmstadt.de;http://opac.ulb.tu-darmstadt.de/opac/opac;Jan.-März und Juni-Aug. täglich 24 Stunden, April-Mai und Sept.-Dez. täglich 07.00 - 01.00 Uhr;1.000.001 und mehr;Land;Sektion 4: Wiss. Universalbibliotheken;hauptamtlich;86.566;49.873.211
Universitätsbibliothek Erlangen-Nürnberg. Zentralbibliothek;Universitätsstr. 4;91054;Erlangen;-9131;85-22151;http://www.ub.uni-erlangen.de/;http://opac.uni-erlangen.de;;1.000.001 und mehr;Land;Sektion 4: Wiss. Universalbibliotheken;hauptamtlich;11.003.274;4.959.508
Staatliche Bibliothek (Provinzialbibliothek) Amberg;Malteserpl. 4;92224;Amberg/Oberpfalz;-9621;6028-0;http://www.provinzialbibliothek-amberg.de;;Mo, Di, Do, Fr 10-17 Uhr, Mi 10-18;100.001 bis 300.000;Land;Sektion 4: Wiss. Universalbibliotheken;hauptamtlich;11.855.879;49.442.448
Hochschul- und Landesbibliothek Fulda;Heinrich-von-Bibra-Platz 12;36037;Fulda;-661;(0661) 9640-9850;http://www.hs-fulda.de/hlb/;https://hds.hebis.de/hlbfu/index.php;;300.001 bis 1.000.000;Land;Sektion 4: Wiss. Universalbibliotheken;hauptamtlich;9.675.061;5.055.323
Technische Universität München. Universitätsbibliothek;Arcisstraße 21;80333;München;89;289-28683;http://www.ub.tum.de;http://www.ub.tum.de/opac;http://www.ub.tum.de/oeffnungszeiten;1.000.001 und mehr;Land;Sektion 4: Wiss. Universalbibliotheken;hauptamtlich;11.573.599;48.143.439
Stadtbibliothek Trier;Weberbach 25;54290;Trier;-651;7 18-1429;http://www.trier.de;;;300.001 bis 1.000.000;Kommune/Gemeinde;Sektion 4: Wiss. Universalbibliotheken;hauptamtlich;6.641.293;49.756.737
Universität Konstanz. Kommunikations-, Informations-, Medienzentrum (KIM);Universitätsstr. 10;78457;Konstanz;-7531;88-2800 und 2801;http://www.kim.uni-konstanz.de;http://www.kim.uni-konstanz.de/lokale-kataloge.html;Durchgehend 24 Std;1.000.001 und mehr;Land;Sektion 4: Wiss. Universalbibliotheken;hauptamtlich;9.175.957;47.662.757
Universitätsbibliothek Siegen;;57068;Siegen;-271;7 40-4229;http://www.ub.uni-siegen.de;http://obelix.ub.uni-siegen.de;;1.000.001 und mehr;Land;Sektion 4: Wiss. Universalbibliotheken;hauptamtlich;8.024.625;50.874.559
Bibliothek der Alanus Hochschule für Kunst und Gesellschaft;Villestr 3;53347;Alfter;0 22 22 ;93 21-19 74;http://www.alanus.edu;;;10.001 bis 30.000;Körperschaft/Stiftung des priv. Rechts;Sektion 4: Wiss. Universalbibliotheken;hauptamtlich;7.013.472;50.736.995
Universitätsbibliothek Hildesheim;Marienburger Platz 22 (ab 1.1.2015: Universitätsplatz 1);31141;Hildesheim;-5121;8 83-93000;https://www.uni-hildesheim.de/bibliothek/;https://hilkat.uni-hildesheim.de/vufind/;http://www.uni-hildesheim.de/bibliothek/benutzung-service-anmeldung/oeffnungszeiten/;300.001 bis 1.000.000;Land;Sektion 4: Wiss. Universalbibliotheken;hauptamtlich;9.948.634;52.155.018
Hochschule Augsburg  Bibliothek;An der Hochschule 1;86161;Augsburg;-821;55 86-3289;http://www.hs-augsburg.de/bibliothek;;Mo-Do: 9.00 - 21.30 Uhr, Fr: 9.00 - 19.30 Uhr, Sa: 8.00 - 18.00 Uhr;100.001 bis 300.000;Land;Sektion 4: Wiss. Universalbibliotheken;hauptamtlich;10.892.578;48.369.696
Pädagogische Hochschule. Bibliothek;Kunzenweg 21;79117;Freiburg/Breisgau;-761;682-202;http://www.ph-freiburg.de/hochschule/zentrale-einrichtungen/bibliothek/startseite.html;https://rds.ibs-bw.de/phfreiburg/opac/;Mo - Fr 8-20 Uhr, Sa 10-15 Uhr;100.001 bis 300.000;Land;Sektion 4: Wiss. Universalbibliotheken;hauptamtlich;7.849.877;47.994.786
Universität der Künste Berlin. Universitätsbibliothek;Fasanenstr. 88 (VOLKSWAGEN-Haus);10623;Berlin;-30;(030)314-76498;http://www.ub.udk-berlin.de;http://www.ub.udk-berlin.de;mo-fr 9.00 - 22.00, sa 10.00 - 18.00;300.001 bis 1.000.000;Körperschaft/Stiftung des öff. Rechts;Sektion 4: Wiss. Universalbibliotheken;hauptamtlich;13.405.538;5.251.767
Hochschule Biberach. Bibliothek;Karlstr. 11;88400;Biberach/Riß;7351;582-160;http://www.hochschule-bc.de/bibliothek;;Mo-Do 7:30-20:00 / Fr 7:30-16:30;30.001 bis 100.000;Land;Sektion 4: Wiss. Universalbibliotheken;hauptamtlich;979.203;48.097.465
Hochschule für Bildende Künste Braunschweig. Bibliothek;Johannes-Selenka-Pl. 1;38118;Braunschweig;-531;3 91- 9243 bis 9244. ;http://www.hbk-bs.de/einrichtungen/bibliothek/;http://opac.lbs-braunschweig.gbv.de/DB=3/LNG=DU/;;100.001 bis 300.000;Land;Sektion 4: Wiss. Universalbibliotheken;hauptamtlich;10.520.525;5.226.249
Hochschule Weihenstephan-Triesdorf. Abt. Weihenstephan Zentralbibliothek;Am Hofgarten 2;85354;Freising;-8161;71-3377. 3376 und 5066;http://www.hswt.de/bibliothek;http://www.hswt.de/hochschule/zentrale-einrichtungen/bibliothek/recherche.html;mo -  do 9 - 18. fr 9 - 16. sa 10 - 14 ////Vorlesungsfreie Zeit: mo - fr 9 - 13;100.001 bis 300.000;Land;Sektion 4: Wiss. Universalbibliotheken;hauptamtlich;11.748.361;48.403.627
Hochschule Furtwangen University HFU;Robert-Gerwig-Platz 1;78120;Furtwangen;-7723;920-2208  920-2208;http://www.hs-furtwangen.de/bibliothek;http://bibliothek.hs-furtwangen.de;Montag-Freitag 9.00 - 22.00 Uhr . Samstag 9.00 - 15.00 Uhr;30.001 bis 100.000;Land;Sektion 4: Wiss. Universalbibliotheken;hauptamtlich;8.205.476;48.051.584
Hochschule für Angewandte Wissenschaften Coburg. Bibliothek;Friedrich-Streib-Str. 2;96450;Coburg;9561;317-517;http://www.hs-coburg.de/library;http://coburg.bibkatalog.de;Montag - Freitag 8 - 17 Uhr Sonderöffnung im Semester 17 - 21.30 Uhr Samstag 10 - 18 Uhr;100.001 bis 300.000;Land;Sektion 4: Wiss. Universalbibliotheken;hauptamtlich;10.964.232;50.258.421
Hochschule für Musik Detmold. Bibliothek;Hornsche Str. 39;32756;Detmold;-5231;975707;http://www.hfm-detmold.de;;;100.001 bis 300.000;Land;Sektion 4: Wiss. Universalbibliotheken;hauptamtlich;8.878.641;51.935.357
Berufsakademie Sachsen. Staatliche Studienakademie Bautzen. Bibliothek;Löbauer Str. 1;02625;Bautzen;-3591;353-124;http://www.ba-bautzen.de;http://webopac.ba-bautzen.de;Mo./Mi.: 07.45h - 17.00h, Di./Do.: 07.45h - 16:00h, Fr.: 07.45h - 14.00h;10.001 bis 30.000;Land;Sektion 4: Wiss. Universalbibliotheken;hauptamtlich;14.427.688;51.180.868
Bibliothek der Fachhochschule Südwestfalen;Haldener Str. 182;58095;Hagen;2331;9330-600;http://www.fh-swf.de/bib/;http://kai.fh-swf.de/;;100.001 bis 300.000;Körperschaft/Stiftung des öff. Rechts;Sektion 4: Wiss. Universalbibliotheken;hauptamtlich;7.467.406;51.360.171
Bibliothek der Pädagogischen Hochschule Heidelberg;Keplerstr. 87;69120;Heidelberg;-6221;4 77-134 /-129;http://www.ph-heidelberg.de/org/phb/index.shtml;http://www.ph-heidelberg.de/org/phb/bestand/index.shtml;Mo-Do 8.30 - 18.30 Uhr, Fr 8.30 - 17.00 Uhr;100.001 bis 300.000;Land;Sektion 4: Wiss. Universalbibliotheken;hauptamtlich;8.702.067;49.408.826
Bibliothek der HAWK-Hochschule für angewandte Wissenschaft und Kunst, Hildesheim/Holzminden/Göttingen ;Hohnsen 4;31134;Hildesheim;-5121;881563;https://www.hawk-hhg.de/bibliothek/default.php;;;100.001 bis 300.000;Land;Sektion 4: Wiss. Universalbibliotheken;hauptamtlich;9.948.634;52.155.018
Hochschule Mannheim Hochschulbibliothek;Paul-Wittsack-Straße 10;68163;Mannheim;621;292-6141;http://www.bib.hs-mannheim.de;http://www.bib.hs-mannheim.de;;100.001 bis 300.000;Land;Sektion 4: Wiss. Universalbibliotheken;hauptamtlich;8.466.275;4.948.778
Staatliche Hochschule für Musik und Darstellende Kunst Mannheim. Bibliothek;N 7. 18;68161;Mannheim;-621;292-3506;http://www.muho-mannheim.de;;;30.001 bis 100.000;Land;Sektion 4: Wiss. Universalbibliotheken;hauptamtlich;8.466.275;4.948.778
Fachhochschule Mainz. Standort Holzstraße. Hochschulbibliothek;Holzstr. 36;55116;Mainz;-6131;28 59-121;https://www.hs-mainz.de/studium/services/fachbereichsuebergreifend/bibliothek/;https://opac.ub.uni-mainz.de/LNG=DU/DB=5/;Vorlesungszeit: Mo-Do 8.00-17.00. Fr 8.00-16.00 . Vorlesungsfreie Zeit: Mo-Fr 8.00-13.00;30.001 bis 100.000;Land;Sektion 4: Wiss. Universalbibliotheken;hauptamtlich;8.271.855;50.001.959
Universitätsbibliothek Lüneburg;Scharnhorststr. 1;21335;Lüneburg;-4131;677-1100 und 1110;http://www.leuphana.de/ub;http://katalog.leuphana.gbv.de/DB=1/LNG=DU/;;300.001 bis 1.000.000;Land;Sektion 4: Wiss. Universalbibliotheken;hauptamtlich;10.408.793;53.249.157
Musikhochschule Lübeck - Bibliothek;Große Petersgrube 21;23552;Lübeck;-451;15 05-130 und 205;http://www.mh-luebeck.de;;Semester : 9.30 - 15.30 (Mo. Di. Mi. Fr) . 9.30 - 17.30 (Do);100.001 bis 300.000;Land;Sektion 4: Wiss. Universalbibliotheken;hauptamtlich;10.683.932;53.866.269
Pädagogische Hochschulbibliothek Ludwigsburg ;Reuteallee 46;71634;Ludwigsburg;-7141;140-665;http://phlb.de/bib;http://www.ph-ludwigsburg.de/14150.html;Mo-Do 8.00-19.00, Fr 8.00-17.00;300.001 bis 1.000.000;Land;Sektion 4: Wiss. Universalbibliotheken;hauptamtlich;9.194.347;48.889.441
Universitätsbibliothek Landau;Fortstraße 7;76829;Landau in der Pfalz;6341;280-31602;http://www.ub.uni-koblenz-landau.de/;http://aleph1.uni-koblenz.de/F;Mo-Fr 9.00-21.00;300.001 bis 1.000.000;Land;Sektion 4: Wiss. Universalbibliotheken;hauptamtlich;8.112.414;49.196.595
Hochschulbibliothek der Hochschule Niederrhein;Webschulstr. 41/43;41065;Mönchengladbach;-2161;186-3410 und 3411;http://www.hs-niederrhein.de/bib;http://www.hs-niederrhein.de/bib/webopac/;Mo-Fr.:8.00-22.00, Sa:9-17;100.001 bis 300.000;Land;Sektion 4: Wiss. Universalbibliotheken;hauptamtlich;643.161;51.194.473
Robert-Schumann-Hochschule. Bibliothek;Fischerstr. 110;40476;Düsseldorf;-211;4 91 8230;http://www.rsh-duesseldorf.de;;;100.001 bis 300.000;Land;Sektion 4: Wiss. Universalbibliotheken;hauptamtlich;6.780.068;5.122.422
WHU - Otto Beisheim School of Management   Bibliothek;Burgplatz 3, Gebäude F;56179;Vallendar;-261;6509 555;https://www.whu.edu/fakultaet-forschung/bibliothek/;http://heine.bib.whu.edu/webOPACClient/start.do;Service-Zeiten: Mo - Do: 08.00 - 17.00 Uhr. Fr: 08.00 - 16.00 Uhr;30.001 bis 100.000;Körperschaft/Stiftung des priv. Rechts;Sektion 4: Wiss. Universalbibliotheken;hauptamtlich;7.622.831;50.398.186
Hochschule Koblenz RheinMoselCampus;Konrad-Zuse-Straße 1;56075;Koblenz;-261;95 28-271;http://www.hs-koblenz.de/Bibliothek.970.0.html;http://www.hs-koblenz.de/webOPAC; Mo-Mi 9 - 17 Uhr, Do 9-18 Uhr, Fr. 9-17 Uhr, Sa 10-14 Uhr  während des Semesters.Vorlesungsfreie Zeit : Mo - Do 9- 16 Uhr  Fr. 9-13 Uhr;30.001 bis 100.000;Land;Sektion 4: Wiss. Universalbibliotheken;hauptamtlich;7.597.956;50.359.516
Staatliche Hochschule für Musik. Bibliothek;Wolfartsweierer Str. 7 (Schloß Gottesaue);76131;Karlsruhe;-721;6 62 92 12;http://www.hfm-karlsruhe.de;;Im Semester: Mo 12.00-16.00, Di 10.00-18.00, Mi-Do 10.00-16.00, Fr. 10.00-15.00;100.001 bis 300.000;Land;Sektion 4: Wiss. Universalbibliotheken;hauptamtlich;8.405.282;49.009.626
Hochschulbibliothek der SRH Hochschule Berlin;Ernst-Reuter-Platz 10;10587;Berlin;-30;922 535 52;http://www.srh-hochschule-berlin.de;;Mo-Fr 9.00-15.00, nicht öffentlich zugänglich;2.001 bis 3.000;Private Trägerschaft;Sektion 4: Wiss. Universalbibliotheken;hauptamtlich;13.405.538;5.251.767
Staatliche Akademie der Bildenden Künste Karlsruhe. Bibliothek;Reinhold-Frank-Str. 67;76133;Karlsruhe;721;926 5228;http://www.kunstakademie-karlsruhe.de/?it=/bibliothek/;;Montag-Donnerstag 9.00-17.00 Uhr. Freitag 9.00-14.45 Uhr;30.001 bis 100.000;Land;Sektion 4: Wiss. Universalbibliotheken;hauptamtlich;8.405.282;49.009.626
Bibliothek der Evangelischen Fachhochschule Berlin;Teltower Damm 118-122;14167;Berlin;30;84582510;;;;30.001 bis 100.000;Körperschaft/Stiftung des öff. Rechts;Sektion 4: Wiss. Universalbibliotheken;hauptamtlich;13.405.538;5.251.767
Hochschule Kaiserslautern. Hochschulbibliothek;Morlauterer Str. 31;67657;Kaiserslautern;-631;37 24-2130 und 2131;http://www.hs-kl.de/hs/bibliothek.html;;;100.001 bis 300.000;Land;Sektion 4: Wiss. Universalbibliotheken;hauptamtlich;7.768.864;49.445.456
Hochschule der Bildenden Künste Saar. Bibliothek;Keplerstr. 3-5;66117;Saarbrücken;-681;9 26 52-106;http://www.hbks.uni-sb.de;http://www.opac.saarland.de;Mo.-Mi.: 9.00 Uhr-12.00 Uhr. 13.00 Uhr-16.00 Uhr. Do.: 9.00 Uhr-15.00 Uhr. Fr.: 9.00 Uhr-12.00 Uhr;10.001 bis 30.000;Land;Sektion 4: Wiss. Universalbibliotheken;hauptamtlich;6.996.011;49.236.301
Technische Hochschule Ostwestfalen-Lippe S(kim)- Hochschulbibliothek;Campusallee 12;32657;Lemgo;5261;702 - 2201;http://www.th-owl.de/skim/;http://www.th-owl.de/webOPACClient/start.do?;;100.001 bis 300.000;Land;Sektion 4: Wiss. Universalbibliotheken;hauptamtlich;8.900.886;52.027.912
Zentrale Hochschulbibliothek Lübeck;Ratzeburger Allee 160;23562;Lübeck;-451;5 00-3045;http://www.zhb.uni-luebeck.de;;Mo- Fr 9.00-22.30, Sa 9.30-18.00, So 10.00-18.00;300.001 bis 1.000.000;Land;Sektion 4: Wiss. Universalbibliotheken;hauptamtlich;10.683.932;53.866.269
Hochschule Worms. Hochschulbibliothek;Erenburger Str. 19;67549;Worms;-6241;509-440;http://www.hs-worms.de/bibliothek;http://www-opac.hs-worms.de;Mo - Do 9.00 - 19.00 Uhr. Fr 9.00 - 18.00 Uhr. Sa 9.00 - 13.00 Uhr;30.001 bis 100.000;Land;Sektion 4: Wiss. Universalbibliotheken;hauptamtlich;8.361.704;49.629.828
Hochschule Trier, Bibliothek;Schneidershof;54293;Trier;-651;81 03-209;http://www.hochschule-trier.de/go/bibliothek;http://www.hochschule-trier.de/go/bibliothek-OnlineKatalog;;30.001 bis 100.000;Land;Sektion 4: Wiss. Universalbibliotheken;hauptamtlich;6.641.293;49.756.737
Hochschule für Technik Stuttgart - Bibliothek;Schloßstr. 26;70174;Stuttgart;-711;8926-2927;http://www.hft-stuttgart.de/Einrichtungen/Bibliothek/index.html/de;;Mo-Di 8.30-20.00, Mi-Do 8.30-18.00, Fr 8.30-16.00;30.001 bis 100.000;Land;Sektion 4: Wiss. Universalbibliotheken;hauptamtlich;9.177.734;48.775.817
Hochschule für Musik. Bibliothek;Bibrastr.;97070;Würzburg;-931;3 21 87-3071;http://www.hfm-wuerzburg.de/hochschule/einrichtungen/bibliothek.html;;Mo.Di. 8.30-17.00, Mi.Do. 8.30-18, Fr 8.30-13;30.001 bis 100.000;Land;Sektion 4: Wiss. Universalbibliotheken;hauptamtlich;993.725;4.979.393
Hochschule für angewandte Wissenschaften Würzburg-Schweinfurt (FHWS). Bibliothek.;Münzstr. 12;97070;Würzburg;-931;3511-6242;http://www.bibliothek.fhws.de;http://www.bibkatalog.de;Mo,Di,Mi,Fr 7:45 - 19:00 Uhr, Do 7:45 - 20:00 Uhr, Sa 9:00 - 14:00 Uhr;100.001 bis 300.000;Land;Sektion 4: Wiss. Universalbibliotheken;hauptamtlich;993.725;4.979.393
Jade Hochschule Wilhelmshaven/Oldenburg/Elsfleth. Hochschulbibliothek;Friedrich-Paffrath-Str. 101;26389;Wilhelmshaven;-4421;9 85-2430;http://www.jade-hs.de;http://lhemd.gbv.de/cgi-bin/wwwopc4menu;Mo.-Fr. 8.30h-20.00h;100.001 bis 300.000;Land;Sektion 4: Wiss. Universalbibliotheken;hauptamtlich;8.111.156;53.520.302
Pädagogische Hochschule Schwäbisch Gmünd  - University of Education - Bibliothek;Oberbettringer Str. 200;73525;Schwäbisch Gmünd;-7171;983 338;http://bibliothek.ph-gmuend.de/;http://bibliothek.ph-gmuend.de;Mo.-Fr., 09:00-19:00 Uhr (während der Vorlesungszeiten), Homepage beachten;100.001 bis 300.000;Land;Sektion 4: Wiss. Universalbibliotheken;hauptamtlich;9.796.508;48.802.384
Ostbayerische Technische Hochschule Regensburg / Hochschulbibliothek;Seybothstraße 2;93053;Regensburg;-941;943-1038;http://www.oth-regensburg.de/bibliothek/;https://www.regensburger-katalog.de/TouchPoint/start.do?View=ubrfhr&Language=de&Branch=2;Mo - Fr   7:00 - 22:00 Uhr, Sa  9:00 - 20:00 Uhr;100.001 bis 300.000;Land;Sektion 4: Wiss. Universalbibliotheken;hauptamtlich;12.097.392;49.017.834
Technische Hochschulbibliothek Rosenheim;Hochschulstr.1;83024;Rosenheim;-8031;8 05-178. 170 und 175;http://www.th-rosenheim.de;;;30.001 bis 100.000;Land;Sektion 4: Wiss. Universalbibliotheken;hauptamtlich;12.128.932;47.856.358
Hochschule für Technik und Wirtschaft des Saarlandes / Bibliothek ;Goebenstr. 40;66117;Saarbrücken;-681;58 67-450;http://www.htwsaar.de/service/bibliothek/;http://opac.sulb.uni-saarland.de;Mo - Fr: 9:00 Uhr bis 18:00 UhrSa:9:30 Uhr bis 12:30 Uhr (während der Vorlesungszeit);100.001 bis 300.000;Land;Sektion 4: Wiss. Universalbibliotheken;hauptamtlich;6.996.011;49.236.301
Hochschulbibliothek Reutlingen;Alteburgstrasse 150;72762;Reutlingen;7121;2711333;http://www.reutlingen-university.de/lernzentrum;https://bsz.ibs-bw.de/hsrt;Mo-Fr: 8.00-22.00 Uhr, Sa: 10.00-20.00 Uhr;100.001 bis 300.000;Land;Sektion 4: Wiss. Universalbibliotheken;hauptamtlich;9.212.006;4.849.208
Hochschule für Angewandte Wissenschaften Hamburg (HAW), Hochschulinformations- und Bibliotheksservice (HIBS);Stiftstraße 69;20099;Hamburg;-40;428 75 - 3671;http://www.haw-hamburg.de/hibs;https://kataloge.uni-hamburg.de/LNG=DU/DB=2/;;100.001 bis 300.000;Land;Sektion 4: Wiss. Universalbibliotheken;hauptamtlich;999.697;53.550.678
Hochschule für Musik Nürnberg-Augsburg. Abteilung Nürnberg. Hochschulbibliothek;Veilhofstr. 34. Haus 5;90489;Nürnberg;-911;2 31-39 73;http://www.hfm-n-a.de/;;MO-DO 09:30-12:30. 14:00-16:00. FR 09:30-11:00;30.001 bis 100.000;Land;Sektion 4: Wiss. Universalbibliotheken;hauptamtlich;11.075.269;49.450.938
Duale Hochschule Baden-Württemberg Heilbronn, Bibliothek;Bildungscampus 1, Forum;74076;Heilbronn;7131;1237277;http://www.heilbronn.dhbw.de/studierende/campus/bibliothek.html;;Mo-Fr 8.00-20.00, Sa 8.00-18.00;10.001 bis 30.000;Land;Sektion 4: Wiss. Universalbibliotheken;hauptamtlich;9.217.953;49.140.428
HfWU Nürtingen-Geislingen - Hochschulbibliothek;Schelmenwasen 4-8;72622;Nürtingen;-7022;4 04-185;http://www.hfwu.de/bibliothek/index.shtml;;Montag - Donnerstag 9.00 - 20.00 Uhr , Freitag 9.00 - 18.00 Uhr , Samstag 10.00-15.00 Uhr;30.001 bis 100.000;Land;Sektion 4: Wiss. Universalbibliotheken;hauptamtlich;9.343.281;48.625.847
Hochschule Offenburg / University of Applied Sciences. Bibliothek;Badstr. 24;77652;Offenburg;-781;205-240;http://www.hs-offenburg.de/bibliothek;https://bsz.ibs-bw.de/hsog;Mo - Do 8:00 bis 18:00 Uhr. Sa 9:00 bis 13:00 Uhr, verkürzte Öffnungszeiten in der vorlesungsfreien Zeit;30.001 bis 100.000;Land;Sektion 4: Wiss. Universalbibliotheken;hauptamtlich;7.944.214;48.469.474
ZB MED - Leibniz-Informationszentrum Lebenswissenschaften;Joseph-Stelzmannstr. 9;50931;Köln;-221;4 78-5600;http://www.zbmed.de;http://www.zbmed.de/kataloge/;;1.000.001 und mehr;Körperschaft/Stiftung des öff. Rechts;Sektion 4: Wiss. Universalbibliotheken;hauptamtlich;6.957.068;50.938.107
Fachhochschule Münster. Hochschulbibliothek;Corrensstr. 25;48149;Münster;-251;83-64855;https://www.fh-muenster.de/bibliothek/;https://www.digibib.net/template/search-mask?SID=MASTER:327c28e9dbfc1415f42214d286ed1392&LOCATION=836;;100.001 bis 300.000;Land;Sektion 4: Wiss. Universalbibliotheken;hauptamtlich;7.626.804;51.961.908
Hochschule Landshut. Bibliothek;Am Lurzenhof 1;84036;Landshut;-871;50 61 60;http://www.haw-landshut.de/die-hochschule/zentrale-services/bibliothek/hochschulbibliothek-landshut.html;;365 Tage je 24 Stunden;30.001 bis 100.000;Land;Sektion 4: Wiss. Universalbibliotheken;hauptamtlich;1.215.892;48.538.623
Hochschule. Bibliothek;Prittwitzstr. 10;89075;Ulm/Donau;-731;50-28113;http://www.hs-ulm.de/Bibliothek;;Mo - Do 8 - 18 , Fr 8 - 14;30.001 bis 100.000;Land;Sektion 4: Wiss. Universalbibliotheken;hauptamtlich;9.990.402;48.398.454
Bibliothek der Phil.-Theol. Hochschule Sankt Georgen;Offenbacher Landstr. 224;60599;Frankfurt/Main;-69;60 61-257;http://www.sankt-georgen.de/bibliothek;https://lbsopac.rz.uni-frankfurt.de/IMPLAND=Y/SRT=YOP/LNG=DU/DB=60/;;300.001 bis 1.000.000;Kath. Kirche;Sektion 4: Wiss. Universalbibliotheken;hauptamtlich;8.682.433;5.011.088
Universität der Bundeswehr München. Universitätsbibliothek;Werner-Heisenberg-Weg 39;85577;Neubiberg;-89;60 04-3311;http://www.unibw.de/unibib/;https://opac.unibw.de/ ;Mo.bis Fr. 8:00 - 20.00;1.000.001 und mehr;Staat (Bund od. Republik);Sektion 4: Wiss. Universalbibliotheken;hauptamtlich;11.677.118;48.074.726
Evangelische Hochschule Nürnberg, Bibliothek;Bärenschanzstr. 4;90429;Nürnberg;-911;27253 - 750;http://www.evhn.de/bibliothek.html;https://opac.evhn.de/;Semester: Mo -  Fr  9:00 - 18:00 und Sa 12:00 - 14:00, Prüfungszeit: Mo - Fr 9:00 - 16:00,  Semesterferien: Mo - Fr 9:00 - 13:00;30.001 bis 100.000;Ev. Kirche;Sektion 4: Wiss. Universalbibliotheken;hauptamtlich;11.075.269;49.450.938
Ev. Fachhochschule. Bibliothek;Zweifalltorweg 12;64293;Darmstadt;-6151;87 98-27;http://efh-darmstadt.de;;;30.001 bis 100.000;Ev. Kirche;Sektion 4: Wiss. Universalbibliotheken;hauptamtlich;86.566;49.873.211
BEST Sabel Hochschulbibliothek;Rolandufer 13;10179;Berlin;-30;8471078914;http://www.best-sabel.de/Hochschule/Ausstattung.php;;Montag - Freitag:  9.00 - 18.00 Uhr;1.001 bis 2.000;Private Trägerschaft;Sektion 4: Wiss. Universalbibliotheken;hauptamtlich;13.405.538;5.251.767
Technische Hochschule Mittelhessen, Hochschulbibliothek;Wiesenstr. 14;35390;Giessen;-641;3 09-1230;http://www.thm.de/bibliothek;https://opac.uni-giessen.de/IMPLAND=Y/SRT=YOP/LNG=DU/DB=40/;;100.001 bis 300.000;Land;Sektion 4: Wiss. Universalbibliotheken;hauptamtlich;8.674.877;50.586.195
Katholische Hochschule Nordrhein-Westfalen - Hochschulbibliothek;Wörthstr. 10;50668;Köln;-221;77 57-148/149;http://www.katho-nrw.de;http://alephino.katho-nrw.de:8060;;100.001 bis 300.000;Körperschaft/Stiftung des priv. Rechts;Sektion 4: Wiss. Universalbibliotheken;hauptamtlich;6.957.068;50.938.107
Fachhochschule Dortmund Hochschulbibliothek ;Emil-Figge-Str. 44;44227;Dortmund;231;9112-4046;http://www.fh-dortmund.de/bib;http://www.fh-dortmund.de/rio;http://www.fh-dortmund.de/bibstandorte;100.001 bis 300.000;Körperschaft/Stiftung des öff. Rechts;Sektion 4: Wiss. Universalbibliotheken;hauptamtlich;7.464.165;51.514.171
Evangelische Hochschule Rheinland-Westfalen-Lippe. Bibliothek Protestant University of Applied Sciences. Library;Immanuel-Kant-Str. 18/20;44803;Bochum;-234;3 69 01-239 bis 242;;http://opac.evh-bochum.de;;30.001 bis 100.000;Ev. Kirche;Sektion 4: Wiss. Universalbibliotheken;hauptamtlich;7.217.177;51.482.699
FH Aachen. Bibliothek;Eupener Str. 70;52066;Aachen;-241;6009-52053 bis 52070;http://www.fh-aachen.de/hochschule/bibliothek/;https://www.digibib.net/?LOCATION=A96;http://www.fh-aachen.de/hochschule/bibliothek/;100.001 bis 300.000;Land;Sektion 4: Wiss. Universalbibliotheken;hauptamtlich;60.848;50.773.516
Hochschule München Zentralbibliothek;Lothstr. 13 d;80335;München;-89;12 65-1325,   1207 und 1362;http://www.hm.edu/bib;;;300.001 bis 1.000.000;Land;Sektion 4: Wiss. Universalbibliotheken;hauptamtlich;11.573.599;48.143.439
Bibliothek der Luth. Theol. Hochschule;Altkönigstr. 150;61440;Oberursel/Taunus;-6171;92 63 67;http://www.lthh-oberursel.de;;;10.001 bis 30.000;Sonstige Religionsgemeinschaften;Sektion 4: Wiss. Universalbibliotheken;hauptamtlich;8.582.282;50.200.588
Berufsakademie Sachsen. Staatliche Studienakademie Breitenbrunn. Bibliothek;Schachtstr. 128;08359;Breitenbrunn/Erzgebirge;-37756;70 280;http://www.ba-breitenbrunn.de;http://webopac.ba-breitenbrunn.de;Mo und Do 9.00-12.30 und 13.00-17.00, Di-Mi 9.00-12.30 und 13.00-18.00, Fr 9.00-13.00;10.001 bis 30.000;Land;Sektion 4: Wiss. Universalbibliotheken;hauptamtlich;12.768.669;50.474.623
Hochschule für Fernsehen und Film. Bibliothek; Gabelsbergerstrasse 33;80333;München;-89;6 89 57-160;http://www.hff-muenchen.mhn.de/;;;30.001 bis 100.000;Land;Sektion 4: Wiss. Universalbibliotheken;hauptamtlich;11.573.599;48.143.439
Bibliothek der Hochschule Darmstadt;Schöfferstr. 8;64295;Darmstadt;-6151;16 87 80 und 16 87 85;http://www.bib.h-da.de;;Mo-Do 7.30-17.00, Fr 7.30-14.30, Sa 9.30-13.30;300.001 bis 1.000.000;Land;Sektion 4: Wiss. Universalbibliotheken;hauptamtlich;86.566;49.873.211
Hochschule Düsseldorf / University of Applied Sciences. Hochschulbibliothek;Münsterstraße 156;40476;Düsseldorf;211;0211 4351-9200 (Zentrale), -9201 (Leitung);bib.hs-duesseldorf.de;http://katalog.bibl.fh-duesseldorf.de/;Mo-Fr 8.00-20.00, Sa 11.00-17.00;100.001 bis 300.000;Land;Sektion 4: Wiss. Universalbibliotheken;hauptamtlich;6.780.068;5.122.422
Hochschulbibliothek Esslingen;Flandernstr. 101;73732;Esslingen/Neckar;-711;3 97-4100 und 4103;http://www.hs-esslingen.de/de/;http://www.hs-esslingen.de/webpac;;100.001 bis 300.000;Land;Sektion 4: Wiss. Universalbibliotheken;hauptamtlich;9.309.565;48.741.347
Hochschule für Musik und Darstellende Kunst. Bibliothek;Eschersheimer Landstr. 29/39;60322;Frankfurt/Main;-69;15 40 07-293;http://www.hfmdk-frankfurt.de;https://lbsopac.rz.uni-frankfurt.de/DB=77/ADVANCED_SEARCHFILTER;;30.001 bis 100.000;Land;Sektion 4: Wiss. Universalbibliotheken;hauptamtlich;8.682.433;5.011.088
Hochschule für Musik und Theater. Bibliothek;Harvestehuder Weg 12;20148;Hamburg;-40;(040)42 848- 2596;http://www.hfmt-hamburg.de/hochschule/bibliothek/;https://kataloge.uni-hamburg.de/DB=6/LNG=DU/;50 Stunden pro Woche;30.001 bis 100.000;Land;Sektion 4: Wiss. Universalbibliotheken;hauptamtlich;999.697;53.550.678
Hochschule für Musik und Theater München. Bibliothek;Arcisstr. 12;80333;München;-89;289 - 27460;http://bibliothek.musikhochschule-muenchen.de/;https://webopac.bibliothek.musikhochschule-muenchen.de/;http://bibliothek.musikhochschule-muenchen.de/index.php?option=com_content&task=view&id=585&Itemid=345;100.001 bis 300.000;Land;Sektion 4: Wiss. Universalbibliotheken;hauptamtlich;11.573.599;48.143.439
Technische Hochschule Köln. Hochschulbibliothek;Betzdorfer Str. 2;50679;Köln;-221;82 75-2713;https://www.bibl.th-koeln.de;https://www.th-koeln.de/hochschulbibliothek/;;300.001 bis 1.000.000;Land;Sektion 4: Wiss. Universalbibliotheken;hauptamtlich;6.957.068;50.938.107
Hochschulbibliothek der HTWG Konstanz;Brauneggerstr. 55;78462;Konstanz;-7531;2 06-580;http://www.bibliothek.htwg-konstanz.de;http://www.bibliothek.htwg-konstanz.de;Mo - Do  9.00 - 22.00 Uhr. Fr - 19.00 Uhr. Sa + So  10.00 - 19.00 Uhr;30.001 bis 100.000;Land;Sektion 4: Wiss. Universalbibliotheken;hauptamtlich;9.175.957;47.662.757
Westfälische Hochschule Gelsenkirchen Bocholt Recklinghausen    Hochschulbibliothek;Neidenburger Str. 43;45897;Gelsenkirchen;-209;95 96-216;http://www.w-hs.de/bibliothek/;;08:00 - 19:00;100.001 bis 300.000;Land;Sektion 4: Wiss. Universalbibliotheken;hauptamtlich;7.096.064;51.510.892
Ostfalia Hochschule für angewandte Wissenschaften. Hochschule Braunschweig-Wolfenbüttel. Bibliothek;Am Exer 8;38302;Wolfenbüttel;-5331;9 39-18000;http://www.ostfalia.de/cms/de/bib/;http://sunny.biblio.etc.tu-bs.de/DB=5/LNG=DU/;;100.001 bis 300.000;Land;Sektion 4: Wiss. Universalbibliotheken;hauptamtlich;10.536.202;52.163.491
Zentrum für Kunst und Medien Karlsruhe / Staatliche Hochschule für Gestaltung. Bibliothek;Lorenzstr. 19;76135;Karlsruhe;-721;81 00-1717;http://www.zkm.de;https://bsz.ibs-bw.de/zkmk;Di - Fr: 10 - 19 Uhr, Sa - Mo: 13 - 18 Uhr;30.001 bis 100.000;Sonstige öffentliche Trägerschaft;Sektion 4: Wiss. Universalbibliotheken;hauptamtlich;8.405.282;49.009.626
Kunsthochschule für Medien Köln - Bibliothek / Mediathek;Rheingasse 8;50676;Köln;-221;2 01 89-160;http://www.khm.de/bibliothek;http://bibliothek.khm.de;Semester: Mo-Do 10.00-18.00. Fr 10.00-15.00 / Ferien 13.00-16.30. Fr 13.00-15.00;30.001 bis 100.000;Land;Sektion 4: Wiss. Universalbibliotheken;hauptamtlich;6.957.068;50.938.107
Kunstakademie Münster. Hochschule für Bildende Künste. Bibliothek;Leonardo-Campus 10;48149;Münster;-251;83-61-340;http://www.kunstakademie-muenster.de;;Montag - Freitag  8.30 - 20 Uhr, Samstag 10 - 16 Uhr;30.001 bis 100.000;Land;Sektion 4: Wiss. Universalbibliotheken;hauptamtlich;7.626.804;51.961.908
Hochschule für angewandte Wissenschaften Neu-Ulm / University of Applied Sciences. Hochschulbibliothek;Wileystr. 1;89231;Neu-Ulm;-731;97 62-2706;http://www.hs-neu-ulm.de/studium/bibliothek/;;Mo-Do 09.00 h - 19.00 h, Frei 09.00 h - 17.00 h, Sa (2x im Monat) 10.00 h - 14.00 h;30.001 bis 100.000;Land;Sektion 4: Wiss. Universalbibliotheken;hauptamtlich;9.998.683;48.392.999
Muthesius Kunsthochschule. Zentrale Hochschulbibliothek;Legienstraße 35;24103;Kiel;-431;51 98-407;http://www.muthesius.de;;Mo - Do 10-19, Fr. 10-16;30.001 bis 100.000;Land;Sektion 4: Wiss. Universalbibliotheken;hauptamtlich;1.013.727;54.321.775
Hochschule für Musik Bibliothek        ;Schwarzwaldstr. 141;79102;Freiburg / Breisgau;761;3 19 15 26;http://www.mh-freiburg.de/bibliothek/willkommen/;;Mo - Fr: 10 00- 17.00, Sa: 13.00 - 15.00, in den Semesterferien verkürzte Öffnungszeiten;100.001 bis 300.000;Land;Sektion 4: Wiss. Universalbibliotheken;hauptamtlich;7.849.877;47.994.786
Hochschulbibliothek der Hochschule Bochum;Lennershofstr. 140;44801;Bochum;-234;32-10770. -10760. -10751;http://www.hochschule-bochum.de/bib.html;;Im Semester: Mo u. Fr  8.00-18.00. Di-Do 8.00-20.00. Sa 10.00-14.00. So 14.00-18.00. In den Semesterferien: Mo-Di. Do-Fr 8.00-18.00. Mi 8.00-20.00;30.001 bis 100.000;Land;Sektion 4: Wiss. Universalbibliotheken;hauptamtlich;7.217.177;51.482.699
Hochschule für Gestaltung. Bibliothek;Schloßstr. 31;63065;Offenbach/Main;-69;80059-0;http://www.hfg-offenbach.de;;Mo-Do 9.00-16.00. Fr 9.00-14.00;10.001 bis 30.000;Land;Sektion 4: Wiss. Universalbibliotheken;hauptamtlich;8.764.442;50.105.567
Philosophisch-Theol. Hochschule der Salesianer Don Boscos. Theologische Fakultät. Bibliothek;Don-Bosco-Str. 1;83671;Benediktbeuern;-8857;88-212;http://www.pth-bibliothek.de;http://www.pth-bibliothek.de/main.htm;Mo-Fr 8.15-13.00. Mo-Do 14.00-17.00. Fr 14.00-15.30;300.001 bis 1.000.000;Körperschaft/Stiftung des öff. Rechts;Sektion 4: Wiss. Universalbibliotheken;hauptamtlich;11.411.896;47.707.913
Bibliothek der Kirchlichen Hochschule Bethel;Remterweg 41;33617;Bielefeld;-521;1 44-3964;http://www.bethel.de/kiho;;Mo - Do 8.00 - 12.00 Uhr und 14.00 - 16.30 Uhr, Fr. 8.00 - 12.00 Uhr und 14.00 - 15.00 Uhr;100.001 bis 300.000;Ev. Kirche;Sektion 4: Wiss. Universalbibliotheken;hauptamtlich;853.212;52.020.578
Fachhochschule Bielefeld, Hochschulbibliothek;Interaktion 1;33619;Bielefeld;-521;1 06-3350;http://www.fh-bielefeld.de/bib;;;100.001 bis 300.000;Land;Sektion 4: Wiss. Universalbibliotheken;hauptamtlich;853.212;52.020.578
Technische Hochschule Georg Agricola, Hochschulbibliothek  ;Herner Str. 45;44787;Bochum;-234;9 68-3250. 3216 und 3385;https://www.thga.de/die-th/zentrale-einrichtungen/medienzentrum/bibliothek/;;;30.001 bis 100.000;Körperschaft/Stiftung des priv. Rechts;Sektion 4: Wiss. Universalbibliotheken;hauptamtlich;7.217.177;51.482.699
Studienbibliothek Dillingen/Donau;Kardinal-von-Waldburg-Str. 51;89407;Dillingen/Donau;-9071;28 60;http://www.studienbibliothek-dillingen.de;;Mo - Do 10.30 - 16.00, Fr 10.30 - 17.00;100.001 bis 300.000;Land;Sektion 4: Wiss. Universalbibliotheken;hauptamtlich;10.495.232;48.580.882
Fachhochschule Esslingen. Hochschule für Sozialwesen. Bibliothek;Flandernstr. 101;73732;Esslingen/Neckar;-711;3 97-4103;http://www.fht-esslingen.de/institute/wwwbi;http://www.fht-esslingen.de/institute/wwwbi/webpac.html;;30.001 bis 100.000;Land;Sektion 4: Wiss. Universalbibliotheken;hauptamtlich;9.309.565;48.741.347
Zentrale Hochschulbibliothek Flensburg;Auf dem Campus 3;24943;Flensburg;-461;805-2901/-2910/-2916;http://www.zhb-flensburg.de;https://lhkie.gbv.de/DB=5/LNG=DU/;Mo - Fr    8:00 - 21:00 Uhr, Sa. 10:00-18:00;100.001 bis 300.000;Land;Sektion 4: Wiss. Universalbibliotheken;hauptamtlich;943.751;5.478.252
Bibliothek des Bischöflichen Priesterseminars | Hauptbibliothek der Theologischen Fakultät Fulda;Domdechanei 4;36037;Fulda;-661;87-531 und 530;http://bib.thf-fulda.de;http://opac.uni-giessen.de/IMPLAND=Y/SRT=YOP/LNG=DU/DB=80/;Montag - Donnerstag: 09.00 - 12.30, 14.00 - 17.00 Uhr , Freitag: 09.00 - 12.30, 13.30 - 15.00 Uhr. In den Semesterferien kürzere Öffnungszeiten!;300.001 bis 1.000.000;Kath. Kirche;Sektion 4: Wiss. Universalbibliotheken;hauptamtlich;9.675.061;5.055.323
Bibliothek der HafenCity Universität Hamburg;Überseeallee 16;20457;Hamburg;-40;428 27 -5675;http://www.hcu-hamburg.de/bibliothek;;;30.001 bis 100.000;Land;Sektion 4: Wiss. Universalbibliotheken;hauptamtlich;999.697;53.550.678
Helmut-Schmidt-Universität, Universität der Bundeswehr Hamburg  Universitätsbibliothek;Holstenhofweg 85;22043;Hamburg;-40;06541 2626;http://www.hsu-bibliothek.de;;;300.001 bis 1.000.000;Staat (Bund od. Republik);Sektion 4: Wiss. Universalbibliotheken;hauptamtlich;999.697;53.550.678
Zentralbibliothek der Sportwissenschaften (Deutsche Sporthochschule Koeln);Am Sportpark Muengersdorf 6;50933;Köln;-221;4982-3880;http://www.zbsport.de;https://aleph.zbsport.de/F?func=login&local_base=zbs01;Mo. - Fr..: 7.30 - 21.00 Uhr, Sa.: 10.00 - 18.00 Uhr;300.001 bis 1.000.000;Körperschaft/Stiftung des öff. Rechts;Sektion 4: Wiss. Universalbibliotheken;hauptamtlich;6.957.068;50.938.107
Hochschule für Musik und Tanz Köln - Bibliothek -;Unter Krahnenbäumen 87;50668;Köln;221;28 380-200;https://www.hfmt-koeln.de/hochschule/bibliothek.html;https://bibliothekskatalog.hfmt-koeln.de/;Mo+Do 9.30-18.00 Uhr, Di+Mi 9:30-16:00, Fr 9.30-14.30 Uhr;100.001 bis 300.000;Land;Sektion 4: Wiss. Universalbibliotheken;hauptamtlich;6.957.068;50.938.107
Hochschulbibliothek Pforzheim  Bereichsbibliothek Wirtschaft und Technik;Tiefenbronner Straße 65;75175;Pforzheim;-7231;286234;https://www.hs-pforzheim.de/hochschule/organisation/bibliothek/;https://bsz.ibs-bw.de/hspf;Vorlesungszeit:Mo - Fr 08.00 - 21.00. | Sa 14.00-19.00 Vorlesungsfreie Zeit:Mo - Fr 08.00 - 18.00;100.001 bis 300.000;Land;Sektion 4: Wiss. Universalbibliotheken;hauptamtlich;8.699.166;48.891.285
Deutsche Universität für Verwaltungswissenschaften Speyer. Universitätsbibliothek;Freiherr-vom-Stein-Str. 2;67346;Speyer;-6232;6 54-243;http://www.uni-speyer.de/de/service/bibliothek.php;http://opac.uni-speyer.de/libero/WebOpac.cls;;300.001 bis 1.000.000;Sonstige öffentliche Trägerschaft;Sektion 4: Wiss. Universalbibliotheken;hauptamtlich;8.436.572;49.316.172
Staatliche Hochschule für Musik und Darstellende Kunst. Bibliothek;Urbanstr. 25;70182;Stuttgart;-711;2 12-4664;http://www.mh-stuttgart.de/;http://www.mh-stuttgart.de/bibliothek/stopac-eingabemaske.htm;Montag bis Donnerstag 9.30 - 18.00. Freitag 09.30 - 15.00;100.001 bis 300.000;Land;Sektion 4: Wiss. Universalbibliotheken;hauptamtlich;9.177.734;48.775.817
Theol. Hochschule der Pallottiner. Bibliothek;Pallottistr. 3;56179;Vallendar;-261;64 02-272;http://www.bibliothek.pthv.de;;Mo Di Mi Fr: 9.00-11.00 Uhr und Di Do: 13.30 - 17.00 Uhr;100.001 bis 300.000;Kath. Kirche;Sektion 4: Wiss. Universalbibliotheken;hauptamtlich;7.622.831;50.398.186
Hochschulbibliothek Weingarten;Kirchpl. 2;88250;Weingarten;-751;5 01-8368;;;Montag - Freitag 7:30 - 20:00, Samstag 9:00 - 16:00;100.001 bis 300.000;Land;Sektion 4: Wiss. Universalbibliotheken;hauptamtlich;9.640.669;47.807.399
Universitätsbibliothek Vechta;Driverstr. 26;49377;Vechta;-4441;15-355;;https://opac.ub.uni-osnabrueck.de/DB=3/LNG=DU/;Semester: 8:30 - 20:00, Semesterferien 8:30-18:00;300.001 bis 1.000.000;Land;Sektion 4: Wiss. Universalbibliotheken;hauptamtlich;8.284.838;52.727.529
Universitätsbibliothek Duisburg-Essen;Universitätsstraße 9 - 11;45141;Essen;201;183-3699;http://www.uni-due.de/ub;;;1.000.001 und mehr;Land;Sektion 4: Wiss. Universalbibliotheken;hauptamtlich;7.012.583;51.455.843
Hochschul- und Landesbibliothek RheinMain, Kurt-Schumacher-Ring;Kurt-Schumacher-Ring 18;65197;Wiesbaden;-611;94 95-1160;http://www.hs-rm.de/bibliothek;https://hds.hebis.de/hsrm/index.php;Mo-Fr 8.30 - 20.00 UhrSa: 10.00 - 18.00 Uhr ;1.000.001 und mehr;Land;Sektion 4: Wiss. Universalbibliotheken;hauptamtlich;8.239.138;50.081.698
Hochschule Emden/Leer, Hochschulbibliothek;Constantiaplatz 4;26723;Emden;;04921 / 807-1772;http://www.hs-emden-leer.de/einrichtungen/bibliothek.html;http://lhemd.gbv.de/DB=2/LNG=DU/HTML=Y/;siehe: http://www.hs-emden-leer.de/einrichtungen/bibliothek.html;100.001 bis 300.000;Land;Sektion 4: Wiss. Universalbibliotheken;hauptamtlich;7.205.946;53.370.558
Bibliothek der Dualen Hochschule Baden-Württemberg Stuttgart;Kronenstraße 53b;70174;Stuttgart;711;18 49-835;http://www.dhbw-stuttgart.de/bibliothek;;;30.001 bis 100.000;Land;Sektion 4: Wiss. Universalbibliotheken;hauptamtlich;9.177.734;48.775.817
Beuth Hochschule für Technik Berlin  Hochschulbibliothek  Bibliotheksleitung;Luxemburger Str. 10;13353;Berlin;-30;45 04-2316;http://www.beuth-hochschule.de/bibliothek/;;In der vorlesungsfreien Zeit: 9.00-15.00. Im Semester: 9.00-21.00;100.001 bis 300.000;Land;Sektion 4: Wiss. Universalbibliotheken;hauptamtlich;13.405.538;5.251.767
Technische Informationsbibliothek;Welfengarten 1 B;30167;Hannover;-511;7 62-33 28;http://www.tib.eu;;;1.000.001 und mehr;Sonstige öffentliche Trägerschaft;Sektion 4: Wiss. Universalbibliotheken;hauptamtlich;9.738.084;52.374.551
Hochschule für öffentliche Verwaltung.  Bibliothek;Kinzigallee 1;77694;Kehl;-7851;8 94-127;http://www.hs-kehl.de/hochschule/zentrale-einrichtungen/iz-bibliothek/;;Mo-Do 7.45-17.00 Fr 7.45-17.00 Ferien: verkürzte Öffnungszeiten;30.001 bis 100.000;Land;Sektion 4: Wiss. Universalbibliotheken;hauptamtlich;7.813.177;48.572.447
Hochschule für Wirtschaft und Gesellschaft Ludwigshafen, Bibliothek;Ernst-Boehe-Str. 4;67059;Ludwigshafen/Rhein;-621;52 03 - 5 10;https://bib.hs-lu.de/;https://opac.hs-lu.de/alipac/-/form/find-multibase;Die Öffnungszeiten an unseren drei Bibliotheksstandorten sind unserer Internetseite https://bib.hs-lu.de/informationen-zur-bibliothek/oeffnungszeiten.html zu entnehmen;100.001 bis 300.000;Land;Sektion 4: Wiss. Universalbibliotheken;hauptamtlich;8.447.899;49.483.235
Alice Salomon Hochschule Berlin / University of Applied Sciences. Bibliothek;Alice-Salomon-Platz 5;12627;Berlin;-30;9 92 45-381/382;http://www.ash-berlin.eu/studienangebot/bibliothek;https://opac.ash-berlin.eu/webOPACClient.ashsis/start.do;Mo.+Fr. 10:00 - 18:00 Di.-Do. 09:00 - 18:00 Sa, 10:00-13:00;100.001 bis 300.000;Land;Sektion 4: Wiss. Universalbibliotheken;hauptamtlich;13.405.538;5.251.767
Evangelische Hochschule Freiburg. Staatlich anerkannte Hochschule der Evangelischen Landeskirche in Baden Hochschulbibliothek;Bugginger Str. 38;79114;Freiburg/Breisgau;-761;4 78 12-46;http://www.eh-freiburg.de/studieren/bibliothek;https://eh-freiburg.bsz-bw.de;Semester: Mo - Fr: 9.00 - 17.00 / vorlesungsfreie Zeit: Mo - Do: 9.00 - 12.00 und 13.00 bis 16.00, Fr. 9.00 - 12.30;30.001 bis 100.000;Ev. Kirche;Sektion 4: Wiss. Universalbibliotheken;hauptamtlich;7.849.877;47.994.786
Theologische Hochschule Ewersbach - Bibliothek;Jahnstraße 53 – Kronbergforum;35716;Dietzhölztal;2774;929-118;http://www.th-ewersbach.de/;;;30.001 bis 100.000;Sonstige Religionsgemeinschaften;Sektion 4: Wiss. Universalbibliotheken;hauptamtlich;8.315.583;50.832.704
Hochschule für Jüdische Studien. Bibliothek;Landfriedstr. 12;69117;Heidelberg;-6221;91 25 25;;;;30.001 bis 100.000;Land;Sektion 4: Wiss. Universalbibliotheken;hauptamtlich;8.702.067;49.408.826
Bibliothek der Dualen Hochschule Baden-Württemberg Mannheim, Baden-Wuerttemberg Cooperative State University Mannheim  ;Coblitzallee 1-9;68163;Mannheim;621;4105-1118;http://www.bib.dhbw-mannheim.de;;;30.001 bis 100.000;Land;Sektion 4: Wiss. Universalbibliotheken;hauptamtlich;8.466.275;4.948.778
Hochschule Kempten. Hochschulbibliothek;Bahnhofstr. 61;87435;Kempten;-831;25 23-127;http://www.hochschule-kempten.de/services/bibliothek.html;;Mo-Fr 7.45-18.00 Sa 9.30-14.00;30.001 bis 100.000;Land;Sektion 4: Wiss. Universalbibliotheken;hauptamtlich;10.317.823;47.724.016
Fachhochschule Kiel. Zentralbibliothek;Grenzstr. 3;24149;Kiel;-431;210-4800;http://www.bibliothek.fh-kiel.de;;Mo-Do.09-19 Fr 09-18 Uhr;100.001 bis 300.000;Land;Sektion 4: Wiss. Universalbibliotheken;hauptamtlich;1.013.727;54.321.775
Katholische Stiftungshochschule München.   Bibliothek Campus München;Preysingstr. 89b;81667;München;-89;4 80 92-8262 ;http://www.ksh-muenchen.de/hochschule/zentrale-einrichtungen-dienste/bibliotheken/oeffnungszeiten-muenchen/;;MO-DO: 9.00-17.00 Uhr. FR: 9.00-16.00 Uhr, SA: 10.00-13.00 Uhr (verkürzte Öffnungszeiten in den Semesterferien);30.001 bis 100.000;Körperschaft/Stiftung des öff. Rechts;Sektion 4: Wiss. Universalbibliotheken;hauptamtlich;11.573.599;48.143.439
Kath. Hochschule für Soziale Arbeit. Bibliothek;Rastpfuhl 12 a;66113;Saarbrücken;-681;9 71 32-25;http://www.khsa.de;;Mo-Do 8.00-12.00 Uhr und 13.00-16.00 Uhr. Frei 8.00-13.00 Uhr;30.001 bis 100.000;Kath. Kirche;Sektion 4: Wiss. Universalbibliotheken;hauptamtlich;6.996.011;49.236.301
Bibliothek der Hochschule Hannover;Ricklinger Stadtweg 118;30459;Hannover;-511;92 96-1086;http://www.hs-hannover.de/bibl/;;Mo-Fr 9.00-20.00. Sa 9.00-14.00. (Mo-Fr 9.00-16.00. Do 9.00-18.00);100.001 bis 300.000;Land;Sektion 4: Wiss. Universalbibliotheken;hauptamtlich;9.738.084;52.374.551
Ev. Fachhochschule Reutlingen-Ludwigsburg. Hochschule für Soziale Arbeit. Religionspädagogik und Diakonie. Hochschulbibliothek;Auf der Karlshöhe 2;71638;Ludwigsburg;-7141;9 65-235;http://www.efh-reutlingen-ludwigsburg.de/;;mo.-do. 9.00 - 17.00 fr. 9.00 - 14.00;bis 1.000;Körperschaft/Stiftung des priv. Rechts;Sektion 4: Wiss. Universalbibliotheken;hauptamtlich;9.194.347;48.889.441
Fachhochschule für Verwaltung. Bibliothek;Beethovenstr. 26;66125;Saarbrücken;-6897;79 08 40;http://www.fhsv.saarland.de;;;5.001 bis 10.000;Land;Sektion 4: Wiss. Universalbibliotheken;hauptamtlich;6.996.011;49.236.301
 Hochschule für Polizei Baden-Württemberg Bibliothek;Sturmbühlstr. 250;78054;Villingen-Schwenningen;-7720;309-295 oder 309-296;http://www.hfpol-bw.de/index.php/literatur;;Mo, Mi, Do: 8.00-16.30Uhr  Di 8:00-18:00 Uhr Fr 8.00-12.00Uhr;30.001 bis 100.000;Land;Sektion 4: Wiss. Universalbibliotheken;hauptamtlich;8.459.649;48.058.255
Verwaltungsfachhochschule Altenholz, Bibliothek;Rehmkamp 10;24161;Altenholz;-431;32 09-122 und 123;http://www.vfh-sh.de/;;;10.001 bis 30.000;Körperschaft/Stiftung des öff. Rechts;Sektion 4: Wiss. Universalbibliotheken;hauptamtlich;10.120.656;54.402.998
Fachhochschule für Rechtspflege Nordrhein-Westfalen;Schleidtalstr. 3;53902;Bad Münstereifel;-2253;318130;http://www.fhr.nrw.de;;;10.001 bis 30.000;Land;Sektion 4: Wiss. Universalbibliotheken;hauptamtlich;6.765.111;50.556.858
Berufsakademie Sachsen  Staatliche Studienakademie Dresden  Bibliothek;Hans-Grundig-Straße 25;01099;Dresden;-351;8022977;;;Mo-Do 9.00-19.00, Fr 9.00-15.00;10.001 bis 30.000;Land;Sektion 4: Wiss. Universalbibliotheken;hauptamtlich;13.736.883;51.051.697
Hochschule für Finanzen Rheinland-Pfalz. Bibliothek;Luitpoldstr. 33;67480;Edenkoben;-6323;9489-0;www.hochschule-edenkoben.de/;;07.00 - 16.00 Uhr;5.001 bis 10.000;Land;Sektion 4: Wiss. Universalbibliotheken;hauptamtlich;8.127.001;49.282.672
Fachhochschule für öffentliche Verwaltung Nordrhein-Westfalen. Bibliothek;Haidekamp 73;45886;Gelsenkirchen;-209;1659-0;http://www.fhoev.nrw.de;;;100.001 bis 300.000;Land;Sektion 4: Wiss. Universalbibliotheken;hauptamtlich;7.096.064;51.510.892
Studienzentrum der Finanzverwaltung und Justiz Rotenburg a. d. Fulda;Josef-Durstewitz-Str. 2-6;36199;Rotenburg/Fulda;-6623;932-130;http://studienzentrum-rotenburg.bibliotheca-open.de;http://studienzentrum-rotenburg.bibliotheca-open.de/Mediensuche/ErweiterteSuche.aspx;Montag - Donnerstag 7.30 Uhr - 17.30 Uhr, Freitag 7.30 Uhr - 12.30 Uhr;10.001 bis 30.000;Körperschaft/Stiftung des öff. Rechts;Sektion 4: Wiss. Universalbibliotheken;hauptamtlich;9.724.701;50.996.422
Niedersächsische Fachhochschule für Verwaltung und Rechtspflege -Präsidium- Zentralbibliothek;Goslarsche Straße 3;31134;Hildesheim;-5121;163-110;;;;30.001 bis 100.000;Land;Sektion 4: Wiss. Universalbibliotheken;hauptamtlich;9.948.634;52.155.018
Hochschulbibliothek;Nibelungenplatz 1;60318;Frankfurt am Main;-69;15 33-3300;http://www.frankfurt-university.de/bibliothek;https://hds.hebis.de/fuas/index.php;Regulär: Mo- Fr 09.00-21.00 Uhr, Sa 10.00 - 15.00 UhrPrüfungszeit: Mo- Fr 09.00-22.00 Uhr, Sa 10.00 - 22.00 UhrVorlesungsfreie Zeit Sommer: Mo-Mi,Fr 11.00-16.00 Uhr, Do 11.00 - 18.00 Uhr;100.001 bis 300.000;Land;Sektion 4: Wiss. Universalbibliotheken;hauptamtlich;8.682.433;5.011.088
Hochschulbibliothek Aalen;Anton-Huber-Str. 17;73430;Aalen;-7361;576-1919;https://www.hs-aalen.de/de/facilities/3;https://bsz.ibs-bw.de/aDISWeb/app?service=direct/0/Home/$DirectLink&sp=SOPAC15;Vorlesungszeit: Mo-Fr. 8.00-20.00 Uhr, Sa 9.00-16.00 Uhr - Vorlesungsfreie Zeit: Mo-Fr 10.00-13.00, Di zusätzlich 14.00-16.00 Uhr und Do 14.00-17.00 Uhr;30.001 bis 100.000;Land;Sektion 4: Wiss. Universalbibliotheken;hauptamtlich;10.092.337;48.835.057
Fachhochschule des Berufsförderungswerks. Bibliothek;Bonhoefferstr.;69123;Heidelberg;-6221;88-2459;;;;30.001 bis 100.000;Körperschaft/Stiftung des öff. Rechts;Sektion 4: Wiss. Universalbibliotheken;hauptamtlich;8.702.067;49.408.826
Rheinische Fachhochschule Köln gGmbH Bibliothek;Lindenstr. 16 - 22;50674;Köln;-221;20 30-221;http://www.rfh-koeln.de;;;10.001 bis 30.000;Land;Sektion 4: Wiss. Universalbibliotheken;hauptamtlich;6.957.068;50.938.107
Hochschule für öffentliche Verwaltung und Finanzen. Bibliothek;Reuteallee 36;71634;Ludwigsburg;7141;140567;https://www.hs-ludwigsburg.de/einrichtungen/bibliothek.html;https://bsz.ibs-bw.de/hslb;Mo - Do: 8 -17, Fr: 8 - 14;30.001 bis 100.000;Land;Sektion 4: Wiss. Universalbibliotheken;hauptamtlich;9.194.347;48.889.441
Kath. Fachhochschule Mainz. Bibliothek;Saarstr. 3;55122;Mainz;-6131;2 89 44-19. 13 und 55;http://www.kfh-mainz.de/;;;30.001 bis 100.000;Körperschaft/Stiftung des priv. Rechts;Sektion 4: Wiss. Universalbibliotheken;hauptamtlich;8.271.855;50.001.959
Fachhochschule Mannheim. Hochschule für Sozialwesen. Bibliothek;Ludolf-Krehl-Str. 7/11;68167;Mannheim;-621;39 26-136;http://www.fh-mannheim.de;;;30.001 bis 100.000;Land;Sektion 4: Wiss. Universalbibliotheken;hauptamtlich;8.466.275;4.948.778
EBS Universität für Wirtschaft und Recht, EBS Business School, Bibliothek;Rheingaustr. 1;65375;Oestrich-Winkel;-6723;69-135;http://www.ebs.edu/business-school-bibliothek.html?&L=0;http://www-opac.ebs.de/wwwopac/index.asp?lkz=2&nextpage=&time=15:10:25;;10.001 bis 30.000;Private Trägerschaft;Sektion 4: Wiss. Universalbibliotheken;hauptamtlich;800.726;49.998.444
Ev. Fachhochschule für Sozialwesen. Bibliothek;Ringelbachstr. 221;72762;Reutlingen;-7121;24 14-47;http://www.efh-reutlingen-ludwigsburg.de/;http://alephino-efh-opac.elk-wue.de/.ALEPH;;10.001 bis 30.000;Ev. Kirche;Sektion 4: Wiss. Universalbibliotheken;hauptamtlich;9.212.006;4.849.208
Hochschule für Forstwirtschaft Rottenburg - Bibliothek ;Schadenweilerhof;72108;Rottenburg am Neckar;7472;951-215;https://www.hs-rottenburg.net/die-hochschule/einrichtungen-der-hfr/bibliothek/?no_cache=1;https://bsz.ibs-bw.de/aDISWeb/app?service=direct/0/Home/$DirectLink&sp=SOPAC366;Mo - Do: 7.30 - 18.00, Fr. 7.30 - 17.00;30.001 bis 100.000;Land;Sektion 4: Wiss. Universalbibliotheken;hauptamtlich;8.936.507;48.479.475
Hochschule für Gestaltung. Hochschulbibliothek;Rektor-Klaus-Str. 98;73525;Schwäbisch Gmünd;-7171;602 637 und 602 655;http://bibliothek.hfg-gmuend.de/;;SemesteröffnungszeitenMontag - Donnerstag9.00 - 21.00 UhrFreitag10.00 - 19.00 Uhr;10.001 bis 30.000;Land;Sektion 4: Wiss. Universalbibliotheken;hauptamtlich;9.796.508;48.802.384
Hochschule Albstadt-Sigmaringen. Bibliothek Sigmaringen;Anton-Günther-Str. 51;72488;Sigmaringen;-7571;(07571) 73 283 40;http://www.hs-albsig.de/bib/;;;30.001 bis 100.000;Land;Sektion 4: Wiss. Universalbibliotheken;hauptamtlich;9.214.788;48.086.623
Hochschule der Medien - Bibliothek;Nobelstr. 10;70569;Stuttgart;-711;8923-2510;https://www.hdm-stuttgart.de/bibliothek;;;30.001 bis 100.000;Land;Sektion 4: Wiss. Universalbibliotheken;hauptamtlich;9.177.734;48.775.817
Staatlich anerkannte Fachhochschule. PTL Wedel. Gemeinnützige Schulgesellschaft mbH. Bibliothek;Feldstr. 143;22880;Wedel/Holstein;-4103;80 48-21;http://www.fh-wedel.de/cis/bibliothek/bibliothek.html;;;5.001 bis 10.000;Körperschaft/Stiftung des priv. Rechts;Sektion 4: Wiss. Universalbibliotheken;hauptamtlich;9.705.419;53.577.353
Europäische Wirtschaftshochschule Berlin e.V. (EAP). Bibliothek;Europa-Center;10789;Berlin;-30;25 48 02-0;http://www.escpeurope.eu/berlin/berlin-academic-chairs#Library;http://biblio.escpeurope.de/webopac/index.asp?DB=web_biblio;;10.001 bis 30.000;Körperschaft/Stiftung des priv. Rechts;Sektion 4: Wiss. Universalbibliotheken;hauptamtlich;13.405.538;5.251.767
THD Technische Hochschule Deggendorf Bibliothek;Dieter-Görlitz-Platz 1;94469;Deggendorf;-991;3615-700;http://www.th-deg.de/de/studierende/bibliothek#nav;;Mo-Do: 08:00 - 20:00 Uhr, Fr: 08:00 - 18:00 Uhr;100.001 bis 300.000;Land;Sektion 4: Wiss. Universalbibliotheken;hauptamtlich;12.960.122;48.842.204
Technische Hochschule Ingolstadt Bibliothek;Esplanade 10;85049;Ingolstadt;-841;93 48-2160;http://www.thi.de/service/bibliothek.html;http://opac.ku-eichstaett.de/InfoGuideClient/start.do?Login=opacw3&Language=de&BaseURL=/index-hi.html;Servicezeiten: Mo-Fr: 9.00-18.00, Sa: 9.00-13.00. Öffnungszeiten für Hochschulangehörige: Mo-So: 6.00-24.00;100.001 bis 300.000;Land;Sektion 4: Wiss. Universalbibliotheken;hauptamtlich;11.423.387;4.876.542
Fachhochschule Kaiserslautern. Standort Zweibrücken. Bibliothek;Amerikastr. 1;66482;Zweibrücken;6332;914-130;http://www.fh-kl.de/fh/bibliothek/standort-zweibruecken.html;;Mo-Do 8.30 - 19.00 Uhr, Fr 9.00 - 15.00 Uhr, Sa 10.00-14.00 Uhr;30.001 bis 100.000;Land;Sektion 4: Wiss. Universalbibliotheken;hauptamtlich;7.363.114;49.249.189
Hochschule für Angewandte Wissenschaften - Hochschulbibliothek Hof;Alfons-Goppel-Pl. 1;95028;Hof/Saale;-9281;40 93 411;http://www.hof-university.de;;;30.001 bis 100.000;Land;Sektion 4: Wiss. Universalbibliotheken;hauptamtlich;11.913.545;50.316.521
Technische Hochschule Aschaffenburg.Hochschulbibliothek;Würzburger Str. 45 (Gebäude 25);63743;Aschaffenburg;-6021;4206-618;http://www.th-ab.de/bibliothek;https://recherche.bibkatalog.de/InfoGuideClient.fwssis/start.do?Login=wofwsa;;30.001 bis 100.000;Land;Sektion 4: Wiss. Universalbibliotheken;hauptamtlich;9.147.832;49.973.506
Kunsthochschule Berlin-Weißensee. Hochschule für Gestaltung. Bibliothek;Bühringstr. 20;13086;Berlin;-30;4 77 05-225;http://www.kh-berlin.de;;;30.001 bis 100.000;Land;Sektion 4: Wiss. Universalbibliotheken;hauptamtlich;13.405.538;5.251.767
"Hochschule für Musik ""Hanns Eisler"". Bibliothek";Charlottenstr. 55;10117;Berlin;-30;(030) 90269-895;http://www.hfm-berlin.de/;;;30.001 bis 100.000;Land;Sektion 4: Wiss. Universalbibliotheken;hauptamtlich;13.405.538;5.251.767
Hochschule für Technik und Wirtschaft Berlin. Bibliothek;Treskowallee 8;10318;Berlin;-30;50 19-2240;http://bibliothek.htw-berlin.de;http://bibliothek.htw-berlin.de/literatur-suchen;Mo-Fr 9.00-22.00;300.001 bis 1.000.000;Land;Sektion 4: Wiss. Universalbibliotheken;hauptamtlich;13.405.538;5.251.767
Hochschule für Musik Carl Maria von Weber. Hochschulbibliothek;Wettiner Pl. 13;01067;Dresden;-351;49 23 614;http://www.hfmdd.de/bibliothek;;;30.001 bis 100.000;Land;Sektion 4: Wiss. Universalbibliotheken;hauptamtlich;13.736.883;51.051.697
Hochschule für Grafik und Buchkunst. Bibliothek;Wächterstr. 11;04107;Leipzig;-341;21 35-156;http://www.hgb-leipzig.de;http://webpac.hgb-leipzig.de;in der vorlesungsfreien Zeit: Mo-geschl., Di, Mi und Do 11-17.00, Fr. 11-15.00, während des Semesters: Mo-geschl., Di, Mi und Do 11-18.30, Fr. 11-16.00;30.001 bis 100.000;Land;Sektion 4: Wiss. Universalbibliotheken;hauptamtlich;12.377.931;51.338.288
Hochschule für Musik und Theater Felix Mendelssohn Bartholdy. Bibliothek;Grassistr. 8;04107;Leipzig;-341;21 44-630 bis 633;http://www.hmt-leipzig.de;;Mo-Do 11.00-19.00. Fr 11.00-14.00;100.001 bis 300.000;Land;Sektion 4: Wiss. Universalbibliotheken;hauptamtlich;12.377.931;51.338.288
Hochschule für Technik, Wirtschaft und Kultur Leipzig Hochschulbibliothek;Gustav-Freytag-Str. 40;04277;Leipzig;-341;3076-6476 und 6477;http://www.htwk-leipzig.de/de/biblio/;http://katalog.bib.htwk-leipzig.de/;Mo-Fr 9.00-20.00, Sa 9.00-16.00;100.001 bis 300.000;Land;Sektion 4: Wiss. Universalbibliotheken;hauptamtlich;12.377.931;51.338.288
Bibliothek der Theologische Hochschule Friedensau;Ahornstr. 3;39291;Friedensau;3921;916-135 (Leihstelle), -192 (Leiter), ;http://www.thh-friedensau.de/bibliothek/;https://vzlbs3.gbv.de/LNG=DU/DB=11/;So.-Do. 10.00-20.00. Fr. 10.00-13.00;;Sonstige Religionsgemeinschaften;Sektion 4: Wiss. Universalbibliotheken;hauptamtlich;117.953;52.215.984
Brandenburgische Technische Universität Cottbus - Senftenberg IKMZ / Universitätsbibliothek;Platz der Deutschen Einheit 2;03044;Cottbus;-355;69 2373;http://www.b-tu.de/bibliothek/;https://katalog.ub.b-tu.de/InfoGuideClient.btusis/startseite/katalog.htm;Montag-Freitag 9.00 Uhr-22.00 Uhr, Samstag 9.00 Uhr-13.00 Uhr, Sonntag 17.00 Uhr - 22.00 Uhr;1.000.001 und mehr;Land;Sektion 4: Wiss. Universalbibliotheken;hauptamtlich;14.335.117;51.759.345
Hochschule Wismar Hochschulbibliothek;Philipp-Müller-Straße 14;23966;Wismar;-3841;753 7351 und 753 7340;http://www.hsb.hs-wismar.de;http://opac.hs-wismar.de/DB=1/LNG=DU/;Mo-Do 9.00-21.00 Uhr, Fr 9.00-17.00 Uhr, Sa 10.00-15.00 Uhr;300.001 bis 1.000.000;Land;Sektion 4: Wiss. Universalbibliotheken;hauptamtlich;11.466.024;53.891.577
Hochschule für nachhaltige Entwicklung Eberswalde / Hochschulbibliothek;Schicklerstr. 5;16225;Eberswalde;-3334;657200 und 657201;http://www.hnee.de/de/Hochschule/Einrichtungen/Hochschulbibliothek/Hochschulbibliothek-K133.htm?RID=3476;http://opac.hnee.de/webOPACClient/start.do; Mo bis Fr : 9.00 - 20.00 Uhr;100.001 bis 300.000;Körperschaft/Stiftung des öff. Rechts;Sektion 4: Wiss. Universalbibliotheken;hauptamtlich;13.820.369;52.834.577
Hochschule für Technik und Wirtschaft. Bibliothek;Andreas-Schubert-Straße 8;01069;Dresden;-351;4 62-3699;http://www.htw-dresden.de/bib/;;Mo-Fr 9.00 - 22.00 UhrSa 10:00 - 14:00 Uhr (in der Prüfungszeit bis 18:00 Uhr);100.001 bis 300.000;Land;Sektion 4: Wiss. Universalbibliotheken;hauptamtlich;13.736.883;51.051.697
Burg Giebichenstein Kunsthochschule Halle Burg Bibliothek;Neuwerk 7;06108;Halle/Saale;-345;0345/ 77 51-637 bzw. 633;http://www.burg-halle.de;;MO/Di/Fr 9.00 - 20.00 UhrMi/Do    9.00 - 22.00 Uhr;100.001 bis 300.000;Land;Sektion 4: Wiss. Universalbibliotheken;hauptamtlich;11.970.666;51.482.478
Universitätsbibliothek Ilmenau. Technische Universität;Langewiesener Str. 37;98693;Ilmenau;-3677;69 47 01;http://www.tu-ilmenau.de/ub/;http://opac.lbs-ilmenau.gbv.de/DB=1/LNG=DU/;Mo-Fr 8-20 . Sa 9-17 (Prüfungszeit: Mo-Fr 8-22 . Sa 9-17);300.001 bis 1.000.000;Land;Sektion 4: Wiss. Universalbibliotheken;hauptamtlich;10.915.573;50.685.965
Technische Universität Chemnitz. Universitätsbibliothek;Straße der Nationen 62;09111;Chemnitz;-371;531 13100;http://www.tu-chemnitz.de/ub/;https://katalog.bibliothek.tu-chemnitz.de/;Mo-Fr 08.30-24.00.  Sa 10.00-18.00;1.000.001 und mehr;Land;Sektion 4: Wiss. Universalbibliotheken;hauptamtlich;12.921.602;50.833.593
Hochschule Anhalt, Hochschulbibliothek;Bernburger Str. 55/57;06366;Köthen/Anhalt;-3496;67 56 00;http://www.hs-anhalt.de/hochschulbibliothek;http://lhanh.gbv.de/DB=1/SET=9/TTL=1/START_WELCOME;9:30 Uhr - 19:00 Uhr;300.001 bis 1.000.000;Land;Sektion 4: Wiss. Universalbibliotheken;hauptamtlich;11.973.406;51.751.224
Otto-von-Guericke-Universität. Universitätsbibliothek;Universitätsplatz 2;39106;Magdeburg;-391;67 58 640;http://www.ub.ovgu.de/;;Mo - Fr 08 - 23 Uhr, Sa 10 - 18 Uhr;1.000.001 und mehr;Land;Sektion 4: Wiss. Universalbibliotheken;hauptamtlich;11.632.726;52.126.248
Hochschule Mittweida. Hochschulbibliothek;Weststraße 11;09648;Mittweida;-3727;58 12 61;http://www.htwm.de/hsm/;;Mo-Do 8.00-21.00. Fr 8.00-18.00;30.001 bis 100.000;Land;Sektion 4: Wiss. Universalbibliotheken;hauptamtlich;12.975.993;50.986.925
Filmuniversität Babelsberg KONRAD WOLF    Universitätsbibliothek;Marlene-Dietrich-Allee 11;14482;Potsdam;-331;62 02-410;http://www.filmuniversitaet.de;opac.bibl.filmuniversitaet.de;Mo 9.30- Do 18.00. Fr 9.30-16.00 / Semesterferien Mo-Do 10.00-16.00. Fr 10.00-14.00;1.000.001 und mehr;Land;Sektion 4: Wiss. Universalbibliotheken;hauptamtlich;1.305.358;52.400.355
Hochschule Schmalkalden  Cellarius Bibliothek;Blechhammer 4 und 9;98574;Schmalkalden;-3683;688-1600;;;Mo - Do 9.30 -20.00 Uhr. Fr 9.30 -15.00 Uhr;100.001 bis 300.000;Sonstige öffentliche Trägerschaft;Sektion 4: Wiss. Universalbibliotheken;hauptamtlich;1.045.159;50.722.559
Bauhaus-Universität Weimar. Universitätsbibliothek;Steubenstr. 6;99423;Weimar;-3643;58-2801;http://www.uni-weimar.de/ub;;Mo-Fr  9-21 Uhr, Sa 10-16 Uhr , ZB Baustoffe/ Naturwiss. Mo-Do  9-18 Uhr, Fr 9-16 Uhr;300.001 bis 1.000.000;Land;Sektion 4: Wiss. Universalbibliotheken;hauptamtlich;11.329.741;50.980.761
Hochschule für Musik Franz Liszt. Hochschulbibliothek;Platz der Demokratie 2/3;99423;Weimar;-3643;5 55-125 und 124;http://www.hfm-weimar.de;;Hauptbibliothek: Di-Do. 9-13. 14-18 Fr. 9-13. 14-16 Teilbibliothek: Mo-Fr. 9-20 Sa 9-13;100.001 bis 300.000;Land;Sektion 4: Wiss. Universalbibliotheken;hauptamtlich;11.329.741;50.980.761
Hochschule Zittau/Görlitz. Hochschulbibliothek;Hochwaldstr. 12;02763;Zittau;-3583;61 20 21;http://hsb.hszg.de;http://hsb.hszg.de;Mo-Do 9.00-20.00. Fr 9.00-20.00;100.001 bis 300.000;Land;Sektion 4: Wiss. Universalbibliotheken;hauptamtlich;14.806.367;50.896.384
Westsächsische Hochschule Zwickau   Hochschulbibliothek;Klosterstraße 7;08056;Zwickau;-375;5 36 12 51;http://www.fh-zwickau.de/index.php?id=bib;https://www.katalog.fh-zwickau.de/;Mo, Di, Do, Fr, 08.30 - 22.00 Uhr, Mi 10.00 - 22.00 Uhr, Sa 10.00 - 16.00 Uhr;300.001 bis 1.000.000;Land;Sektion 4: Wiss. Universalbibliotheken;hauptamtlich;12.495.641;50.718.556
Folkwang Universität der Künste - Bibliothek;Klemensborn 39;45239;Essen;201;4903241;http://www.folkwang-uni.de/bibliothek/;https://www.dshs-koeln.de/mhe;;100.001 bis 300.000;Land;Sektion 4: Wiss. Universalbibliotheken;hauptamtlich;7.012.583;51.455.843
Hochschule für Schauspielkunst Ernst Busch. Bibliothek;Schnellerstr. 104;12439;Berlin;-30;63 99 75-25;http://www.hfs-berlin.de/;;;30.001 bis 100.000;Land;Sektion 4: Wiss. Universalbibliotheken;hauptamtlich;13.405.538;5.251.767
Fachhochschule Erfurt. Hochschulbibliothek;Altonaer Str. 25;99085;Erfurt;-361;67 00-504;http://www.fh-erfurt.de;;Montag-Donnerstag 9.00 - 21.00 Uhr. Freitag 9.00-16.00 Uhr.;300.001 bis 1.000.000;Sonstige öffentliche Trägerschaft;Sektion 4: Wiss. Universalbibliotheken;hauptamtlich;11.027.236;50.977.122
Hochschule Stralsund. Hochschulbibliothek;Zur Schwedenschanze 15;18435;Stralsund;-3831;4 56-653;http://www.fhb.fh-stralsund.de;;Mo.Di.Do 9.00-18.00. Mi 9.00-20.00. Fr 9.00-16.00;100.001 bis 300.000;Land;Sektion 4: Wiss. Universalbibliotheken;hauptamtlich;13.089.973;54.313.975
Fachhochschule Potsdam. Hochschulbibliothek;Kiepenheuerallee 5;14469;Potsdam;-331;580-2212 und 2210;http://bibliothek.fh-potsdam.de/;https://opac.fh-potsdam.de/InfoGuideClient.bfpsis/start.do?Login=wobfp01;Mo-Fr 9.00-19.00, Sa 9.00-14.30;100.001 bis 300.000;Land;Sektion 4: Wiss. Universalbibliotheken;hauptamtlich;1.305.358;52.400.355
Technische Hochschule Brandenburg, Hochschulbibliothek;Magdeburger Str. 50;14770;Brandenburg;3381;35 51 67;https://bibliothek.th-brandenburg.de/;https://opac.th-brandenburg.de;Mo bis Fr 10.00-22.00;30.001 bis 100.000;Land;Sektion 4: Wiss. Universalbibliotheken;hauptamtlich;12.563.364;52.408.651
Europa-Universität Viadrina. Universitätsbibliothek;Große Scharrnstr. 59;15230;Frankfurt/Oder;-335;55 34-3471;http://www.ub.europa-uni.de;;Mo-Fr 9.00-21.00. Sa 9.00-18.00, So 10.00-18.00;300.001 bis 1.000.000;Land;Sektion 4: Wiss. Universalbibliotheken;hauptamtlich;14.550.979;52.341.757
Hochschule Harz (FH), Bibliothek;Am Eichberg 1;38855;Wernigerode;-3943;6 59-171;http://www.hs-harz.de;;;100.001 bis 300.000;Land;Sektion 4: Wiss. Universalbibliotheken;hauptamtlich;107.843;51.834.471
Hochschule Merseburg (FH). Hochschulbibliothek;Geusaer Straße 88;06217;Merseburg;03461;46 22 69;;;Mo. Mi. Do: 8.00 - 18.00 Uhr. Di: 10.00 - 18.00 Uhr. Fr: 8.00 - 15.00 Uhr;100.001 bis 300.000;Land;Sektion 4: Wiss. Universalbibliotheken;hauptamtlich;11.992.794;513.571
Universitätsbibliothek Erfurt;Nordhäuser Str. 63;99089;Erfurt;-361;737-5500(Sekretariat) und 737-5800(Information);http://www.uni-erfurt.de/bibliothek/;http://opac.uni-erfurt.de/DB=1/LNG=DU/;während des Semesters:  Mo-Fr 8.00-22.00, Sa 10.00-18.00 und So 13.00-18.00 ,  in der Semesterpause :  Mo-Fr 9.00-22.00 und Sa 10.00-16.00   ;1.000.001 und mehr;Land;Sektion 4: Wiss. Universalbibliotheken;hauptamtlich;11.027.236;50.977.122
Hochschule der Sächsischen Polizei (FH);Friedensstr. 120;02929;Rothenburg/O.L.;-35891;46-2660;http://www.polizei.sachsen.de;;Mo 13:15-18.00   Di.Mi,Do 7:30-12.30 u. 13:15-18:00 Fr 7:30-12.00;30.001 bis 100.000;Land;Sektion 4: Wiss. Universalbibliotheken;hauptamtlich;14.966.788;5.133.588
Fachhochschule Polizei Sachsen-Anhalt. Bibliothek;Schmidtmannstr. 86;06449;Aschersleben;-3473;9 60-234 und 345;http://www.polizei.sachsen-anhalt.de/index.php?id=174;;;30.001 bis 100.000;Land;Sektion 4: Wiss. Universalbibliotheken;hauptamtlich;11.455.041;51.756.034
Ostbayerische Technische Hochschule Amberg-Weiden ;Kaiser-Wilhelm-Ring 23;92224;Amberg/Oberpfalz;-9621;4 82-3215;http://bibliothek.oth-aw.de;http://www.oth-aw.de/opac;Mo-Do: 8.30 - 18 h, Fr: 8-14 h, 24/7 für Hochschulangehörige;30.001 bis 100.000;Land;Sektion 4: Wiss. Universalbibliotheken;hauptamtlich;11.855.879;49.442.448
Hochschule Trier. Umwelt-Campus Birkenfeld. Bibliothek;Gebäude 9922 (ZN), Campusallee;55768;Hoppstädten-Weiersbach;-6782;17 14 77;http://bibliothek.umwelt-campus.de;http://ebib.umwelt-campus.de/;;30.001 bis 100.000;Land;Sektion 4: Wiss. Universalbibliotheken;hauptamtlich;7.195.599;49.616.964
Hochschule für Kirchenmusik der Ev. Landeskirche in Württemberg (HKM). Hochschulbibliothek;Gartenstr. 12;72074;Tübingen;-7071;92 59 97;http://www.kirchenmusikhochschule.de;http://alephino-sonb-opac.elk-wue.de/.Aleph;;bis 1.000;Ev. Kirche;Sektion 4: Wiss. Universalbibliotheken;hauptamtlich;9.057.829;48.522.143
Fachhochschule Westküste. Hochschule für Wirtschaft und Technik. Hochschulbibliothek;Fritz-Thiedemann-Ring 20;25746;Heide;-481;85 55-200;http://www.fh-westkueste.de;;;10.001 bis 30.000;Land;Sektion 4: Wiss. Universalbibliotheken;hauptamtlich;9.091.156;54.193.962
Hochschule Bonn-Rhein-Sieg, Hochschul- und Kreisbibliothek Bonn-Rhein-Sieg;Grantham-Allee 20;53757;St. Augustin;-2241;865-680;http://www.bib.h-brs.de;http://www.bib.h-brs.de/katalog.html;Mo-Fr 8.00-22.00;100.001 bis 300.000;Land;Sektion 4: Wiss. Universalbibliotheken;hauptamtlich;7.185.259;5.077.333
Staatliche Hochschule für Musik Trossingen. Hochschulbibliothek;Schultheiß-Koch-Pl. 3;78647;Trossingen;-7425;94 91-33;http://www.mh-trossingen.de;;Mo 13.00-20.00. Di-Do 9.00-17.00. Fr 9.00-15.00;100.001 bis 300.000;Land;Sektion 4: Wiss. Universalbibliotheken;hauptamtlich;8.632.659;48.074.438
Handelshochschule Leipzig (HHL). Hochschulbibliothek;Jahnallee 59;04109;Leipzig;-341;98 51-643;http://www.hhl.de;;;5.001 bis 10.000;Land;Sektion 4: Wiss. Universalbibliotheken;hauptamtlich;12.377.931;51.338.288
Bibliothek der Hochschule Magdeburg - Stendal;Breitscheidstr. 2. (Haus 1);39114;Magdeburg;-391;88 64-187;http://www.hs-magdeburg.de/hochschule/einrichtungen/bibliothek.html;https://opac.lbs-magdeburg.gbv.de/LNG=DU/DB=3/;;100.001 bis 300.000;Land;Sektion 4: Wiss. Universalbibliotheken;hauptamtlich;11.632.726;52.126.248
Hochschule Ansbach. Hochschulbibliothek;Residenzstr. 8;91522;Ansbach;-981;48 77-430;http://www.hs-ansbach.de;https://fanoz3.bib-bvb.de/InfoGuideClient.fansis/start.do?Login=wofanfh;;30.001 bis 100.000;Land;Sektion 4: Wiss. Universalbibliotheken;hauptamtlich;1.057.193;49.302.592
Hochschule für Musik und Theater Rostock. Bibliothek;Beim St.-Katharinenstift 8;18055;Rostock;-381;5108-250;http://www.hmt-rostock.de/einricht/e_bibo.hmt;http://www.uni-rostock.de/ub;Im Semester: Mo-Do 10.00-13.00, 14-16.30, Fr 10.00-13.00;30.001 bis 100.000;Land;Sektion 4: Wiss. Universalbibliotheken;hauptamtlich;12.135.993;54.088.548
Fachhochschule Nordhausen. Hochschulbibliothek;Weinberghof 4;99734;Nordhausen;-3631;420-180;http://www.fh-nordhausen.de/zentrale_einrichtungen/f_bibo.html;;;100.001 bis 300.000;Land;Sektion 4: Wiss. Universalbibliotheken;hauptamtlich;10.791.619;51.500.441
Bibliothek der Dualen Hochschule Gera-Eisenach;Weg der Freundschaft 4;07546;Gera;-365;4341-118;https://www.dhge.de;;;30.001 bis 100.000;Land;Sektion 4: Wiss. Universalbibliotheken;hauptamtlich;12.080.429;50.876.147
EAH Jena. Bibliothek;Carl-Zeiss-Promenade 2;07745;Jena;-3641;205 - 270;http://www.eah-jena.de/bib;;Mo-Do 8.30-19.00. Fr 8.30-17.00;300.001 bis 1.000.000;Land;Sektion 4: Wiss. Universalbibliotheken;hauptamtlich;11.591.842;5.093.006
Technische Hochschule Wildau Hochschulbibliothek;Bahnhofstr. /Halle 10;15745;Wildau;-3375;50 81 23. 50 81 35 und 50 81 55;http://www.th-wildau.de/bibliothek.html;;Mo-Fr 9.00-20.00;100.001 bis 300.000;Sonstige öffentliche Trägerschaft;Sektion 4: Wiss. Universalbibliotheken;hauptamtlich;13.636.571;52.321.356
Thüringische Fachhochschule für Forstwirtschaft Schwarzburg. Bibliothek ;Forstschule 4;07427;Schwarzburg;-36730;37-233;http://www.thueringenforst.de;;;10.001 bis 30.000;Land;Sektion 4: Wiss. Universalbibliotheken;hauptamtlich;11.195.357;50.641.931
Hochschule für Bildende Künste Dresden  Bibliothek;Güntzstraße 34;01307;Dresden;-351;44 0222121;http://www.hfbk-dresden.de;;Mo - Mi 10.00 - 19.00 Uhr , Do 10.00 -16.00 Uhr ;30.001 bis 100.000;Land;Sektion 4: Wiss. Universalbibliotheken;hauptamtlich;13.736.883;51.051.697
Kath. Fachhochschule Berlin. Bibliothek;Köpenicker Allee 39/57;10318;Berlin;-30;50 10 10-34 und 31;http://www.khsb-berlin.de/;http://opac.khsb-berlin.de/;;30.001 bis 100.000;Kath. Kirche;Sektion 4: Wiss. Universalbibliotheken;hauptamtlich;13.405.538;5.251.767
Bibliothek der Dualen Hochschule Baden-Württemberg Standort Villingen-Schwenningen;Friedrich-Ebert-Str. 30;78054;Villingen-Schwenningen;-7720;3 90 61 70;http://www.dhbw-vs.de/bibliothek100.html;;Mo.-Fr. : 08.30-21.00  , Sa.: 09.00-14.00;30.001 bis 100.000;Land;Sektion 4: Wiss. Universalbibliotheken;hauptamtlich;8.459.649;48.058.255
RheinAhrCampus Remagen der Hochschule Koblenz. Bibliothek;Joseph-Rovan-Allee 2;53424;Remagen;-2642;932-170;http://www.hs-koblenz.de/rac/bibliothek/bibliothek-remagen/;;Mo-Fr 8.00-18.00. Sa 09.00-13.00. Vorlesungsfreie Zeit: Mo-Do 9.00-16.00. Fr 9.00-13.00;30.001 bis 100.000;Land;Sektion 4: Wiss. Universalbibliotheken;hauptamtlich;7.234.403;50.577.781
Zeppelin University Bibliothek;Am Seemooser Horn 20;88045;Friedrichshafen;-7541;6009-1180;http://www.zeppelin-university.de/bib;;;30.001 bis 100.000;Private Trägerschaft;Sektion 4: Wiss. Universalbibliotheken;hauptamtlich;9.479.614;47.652.205
Landesamt für Kultur und Denkmalpflege Abt. Landesbibliothek;Johannes-Stelling-Straße 29;19053;Schwerin;-385;588 792 10;http://www.lbmv.de;http://opac.hs-wismar.de/DB=2/LNG=DU/;Mo.Di.Mi.Fr. 10-19 Uhr. Do.13-19 Uhr. Sa 10-13Uhr;300.001 bis 1.000.000;Land;Sektion 4: Wiss. Universalbibliotheken;hauptamtlich;11.414.434;53.628.545
Berufsakademie Sachsen. Staatliche Studienakademie Glauchau. Bibliothek;Kopernikusstr. 51;08371;Glauchau;-3763;1 73-290 und 288;;http://wwwopac.ba-glauchau.de;;30.001 bis 100.000;Land;Sektion 4: Wiss. Universalbibliotheken;hauptamtlich;12.542.352;50.817.863
Ostfriesische Landschaft. Landschaftsbibliothek;Fischteichweg 16;26603;Aurich;-4941;17 99 38;http://www.ostfriesischelandschaft.de/4.html;http://lhemd.gbv.de/DB=1/LNG=DU/HTML=Y/;Di-Fr 10.00-18.00;100.001 bis 300.000;Körperschaft/Stiftung des öff. Rechts;Sektion 4: Wiss. Universalbibliotheken;hauptamtlich;7.482.377;53.469.895
Fachhochschule für öffentliche Verwaltung, Polizei und Rechtspflege - Bibliothek;Goldbergerstrasse 12 - 13;18273;Güstrow;3843;283616;http://www.fh-guestrow.de;;Mo-Do 9.30 - 17.00 Uhr,    Fr 9.30 - 14 Uhr;30.001 bis 100.000;Land;Sektion 4: Wiss. Universalbibliotheken;hauptamtlich;12.175.691;53.794.458
MSH Medical School Hamburg;Am Kaiserkai 1;20457;Hamburg;-40;36006542;http://www.medicalschool-hamburg.de;;;bis 1.000;Private Trägerschaft;Sektion 4: Wiss. Universalbibliotheken;hauptamtlich;999.697;53.550.678
Duale Hochschule Baden-Würtemberg Heidenheim Bibliothek;Marienstr. 20;89518;Heidenheim;7321;2722-150;http://www.dhbw-heidenheim.de/Bibliothek.55.0.html;;;30.001 bis 100.000;Land;Sektion 4: Wiss. Universalbibliotheken;hauptamtlich;10.154.639;48.677.736
Ev. Hochschule für Kirchenmusik, Bibliothek;Kleine Ulrichstraße 35;06108;Halle/Saale;-345;2196914;http://www.ehk-halle.de;;Mo - Fr 9 - 12 Uhr und 13:30 - 16:00 Uhr;30.001 bis 100.000;Ev. Kirche;Sektion 4: Wiss. Universalbibliotheken;hauptamtlich;11.970.666;51.482.478
Hochschul- und Landeskirchenbibliothek Wuppertal (HLB Wuppertal);Missionsstr. 11;42285;Wuppertal;202;2820-125;http://www.hlb-wuppertal.de;;;100.001 bis 300.000;Ev. Kirche;Sektion 4: Wiss. Universalbibliotheken;hauptamtlich;7.195.874;51.271.288
Hochschule für Wirtschaft und Recht Berlin (HWR Berlin). Hochschulbibliothek;Badensche Str. 52;10825;Berlin;30;1) 30877-2582, 2) 30877-1284;https://www.hwr-berlin.de/hwr-berlin/serviceeinrichtungen/bibliotheken/;https://www.hwr-berlin.de/hwr-berlin/serviceeinrichtungen/bibliotheken/literaturrecherche/;1) Campus Lichtenberg: Mo: 09:00-20:00 Uhr, Di-Do: 09:00-19:00 Uhr, Fr: 10:00-17:00 Uhr, Sa: 12:00-14:00 Uhr2) Campus Schöneberg: Mo 10 bis 21 Uhr, Di bis Fr 10 bis 19 Uhr, Sa 10 bis 15 Uhr (außer in Semesterferien);100.001 bis 300.000;Körperschaft/Stiftung des öff. Rechts;Sektion 4: Wiss. Universalbibliotheken;hauptamtlich;13.405.538;5.251.767
Hochschule Rhein-Waal Zweigbibliothek Kamp-Lintfort;Südstr. 8;47475;Kamp-Lintfort;2842;90825-114;http://www.hochschule-rhein-waal.de/bibliothek;;;bis 1.000;Land;Sektion 4: Wiss. Universalbibliotheken;hauptamtlich;655.139;51.500.257
Zentral- und Landesbibliothek Berlin: Haus Amerika-Gedenkbibliothek, Haus Berliner Stadtbibliothek und Senatsbibliothek Berlin im Ribbeck-Haus ;Breite Straße 30 - 36;10178;Berlin;-30;9 02 26-0 und -401;http://www.zlb.de;http://www.zlb.de/buecher_medien;Mo-Fr 10.00-21.00. Sa 10.00-19.00;1.000.001 und mehr;Körperschaft/Stiftung des öff. Rechts;Sektion 4: Wiss. Universalbibliotheken;hauptamtlich;13.405.538;5.251.767
Berufsakademie Sachsen. Staatliche Studienakademie Leipzig. Bibliothek;Schönauer Str. 113 a;04207;Leipzig;-341;42 74 33 50;http://www.ba-leipzig.de;;Mo-Do 8:00-17:00 Uhr, Fr 8:00-14:30 Uhr;10.001 bis 30.000;Sonstige öffentliche Trägerschaft;Sektion 4: Wiss. Universalbibliotheken;hauptamtlich;12.377.931;51.338.288
Bibliothek der Dualen Hochschule Baden-Württemberg Lörrach;Hangstr. 46-50;79539;Lörrach;-7621;2071-160;http://www.dhbw-loerrach.de;;Zentralbibliothek: Mo,Di,Do,Fr 9-19 Uhr, Mi 13-19 Uhr, Sa 11-16 Uhr<br>Zweigbibliothek: Mo,Di 10-16 Uhr, Mi 13-16 Uhr, Do 10-18 Uhr, Fr 10-14 Uhr;30.001 bis 100.000;Land;Sektion 4: Wiss. Universalbibliotheken;hauptamtlich;7.659.191;47.612.096
Duale Hochschule Baden-Württemberg Mosbach  Bibliothek;Knopfweg 1/1;74821;Mosbach;-6261;939-419;http://bibliothek.mosbach.dhbw.de;;Mo-Do 9-20 Uhr, Fr 9-17 Uhr, Sa 9-14 Uhr;30.001 bis 100.000;Land;Sektion 4: Wiss. Universalbibliotheken;hauptamtlich;9.146.596;49.352.037
Hochschule Ruhr West, Hochschulbibliothek;Duisburger Str. 100;45479;Mülheim an der Ruhr;-208;88254&#8209,240 (Herrn Niehäuser);http://www.hochschule-ruhr-west.de/;;;1.001 bis 2.000;Land;Sektion 4: Wiss. Universalbibliotheken;hauptamtlich;688.505;51.428.107
Hochschule Macromedia, University of Applied Sciences - Macromedia Library;Sandstraße 9;80335;München;89;544 151-827;http://www.library.macromedia.de;https://macromedia.bsz-bw.de;;5.001 bis 10.000;Private Trägerschaft;Sektion 4: Wiss. Universalbibliotheken;hauptamtlich;11.573.599;48.143.439
BSP Business School Potsdam (FH) - Bibliothek;Jägerallee 23;14469;Potsdam;;;http://www.businessschool-potsdam.de;;;bis 1.000;Private Trägerschaft;Sektion 4: Wiss. Universalbibliotheken;hauptamtlich;1.305.358;52.400.355
Berufsakademie Sachsen Staatl. Studienakademie - Bibliothek;Melanchthonstr.1-3;08523;Plauen;-3741;57 09 161;http://www.ba-plauen.de;;;10.001 bis 30.000;Land;Sektion 4: Wiss. Universalbibliotheken;hauptamtlich;12.135.285;50.496.039
Bibliothek der Dualen Hochschule Baden-Württemberg Ravensburg;Rudolfstraße 19;88214;Ravensburg;-751;18999-2715 und 18999-2105;http://www.dhbw-ravensburg.de/bibliothek-rv.html;;Mo-Do 8.00-21.00 Uhr/ Fr.8.00-18.00 Uhr/Sa 9.00-13.00 Uhr;30.001 bis 100.000;Land;Sektion 4: Wiss. Universalbibliotheken;hauptamtlich;9.615.089;4.778.366
MSB Medical School Berlin – Hochschule für Gesundheit und Medizin - Bibliothek;Calandrellistr. 1-9;12247;Berlin;30;7668375-680;http://www.medicalschool-berlin.de/;;;5.001 bis 10.000;Private Trägerschaft;Sektion 4: Wiss. Universalbibliotheken;hauptamtlich;13.405.538;5.251.767
Berufsakademie Sachsen. Staatliche Studienakademie Riesa. Bibliothek;Am Kutzschenstein 6;01591;Riesa;-3525;70 75 16;http://www.ba-riesa.de;;41,0 Stunden;10.001 bis 30.000;Land;Sektion 4: Wiss. Universalbibliotheken;hauptamtlich;13.304.633;5.130.251
Landesbibliothekszentrum Rheinland-Pfalz;Bahnhofplatz 14;56068;Koblenz;261;91500-101;http://www.lbz-rlp.de/;;Pfälzische Landesbibliothek Speyer: Montag bis Freitag: 9.00 bis 18.00 Uhr. Samstag: 9.00 bis 12.00 Uhr, Rheinische  Landesbibliothek Koblenz: Mo - Fr 10.00-19.00 Uhr. Sa 10.00 - 13.00 Uhr,  Bibliotheca Bipontina Zweibrücken: Mo-Fr 8.00-13.00.;1.000.001 und mehr;Land;Sektion 4: Wiss. Universalbibliotheken;hauptamtlich;7.597.956;50.359.516
Universitätsbibliothek Eichstätt-Ingolstadt;Universitätsallee 1;85072;Eichstätt;-8421;93-21330 und 21331;http://www.ku-eichstaett.de/Bibliothek;http://opac.ku-eichstaett.de/;Montag - Freitag  8.30-22.00 Uhr, Samstag  10.00-16.00 Uhr;1.000.001 und mehr;Körperschaft/Stiftung des öff. Rechts;Sektion 4: Wiss. Universalbibliotheken;hauptamtlich;11.185.203;48.891.094
Universitätsbibliothek Mannheim, Bibliotheksbereich Schloss Ehrenhof, Hasso-Plattner-Bibliothek;Schloss Ehrenhof;68131;Mannheim;621;181-3025;http://www.bib.uni-mannheim.de;;Mo-Fr 8-24 Uhr, Sa-So 10-24 Uhr;300.001 bis 1.000.000;Land;Sektion 4: Wiss. Universalbibliotheken;hauptamtlich;8.466.275;4.948.778
Religionspädagogisches Institut;Kirchplatz 7;88250;Weingarten;751;43919;http://www.drs.de/index.php?id=1472;;;10.001 bis 30.000;Kath. Kirche;Sektion 4: Wiss. Universalbibliotheken;hauptamtlich;9.640.669;47.807.399
